LON,LAT,NUMBER,STREET,UNIT,CITY,DISTRICT,REGION,POSTCODE,ID,HASH
-122.2616716,37.8377292,5132,TELEGRAPH AV,,OAKLAND,,,94609,14-1226-15,2b13400a4d483c21
-122.2619098,37.8374332,5110,TELEGRAPH AV,,OAKLAND,,,94609,14-1226-15,fe2c0215b85bd442
-122.2612466,37.8374809,5107,CLARKE ST,,OAKLAND,,,94609,14-1226-15,052b38a3a884ea79
-122.2619594,37.8373034,5100,TELEGRAPH AV,,OAKLAND,,,94609,14-1226-8-2,5be8273266922da0
-122.2616911,37.8372656,476,51ST ST,,OAKLAND,,,94609,14-1226-7-4,558f728f8ef69a1f
-122.2614891,37.8372311,466,51ST ST,,OAKLAND,,,94609,14-1226-6-4,bb173c5ffcd6d4a0
-122.2612846,37.837199,462,51ST ST,,OAKLAND,,,94609,14-1226-5-4,fb11de60fc3fce45
-122.2611473,37.8371821,458,51ST ST,,OAKLAND,,,94609,14-1226-4-5,2dbdd5135140eabd
-122.2610105,37.8371656,450,51ST ST,,OAKLAND,,,94609,14-1226-3-5,a0c8f7c2dfec96af
-122.1151238,37.6444399,24570,EDEN AV,,HAYWARD,,,94545,441-77-110,449bee549706b352
-122.113945,37.6444571,24655,MOHR DR,,HAYWARD,,,94545,441-77-103,9bbb2127f27bde95
-122.1151197,37.6442487,24582,EDEN AV,,HAYWARD,,,94545,441-77-102,8d7f10f9949c0b16
-122.1138958,37.6443585,24659,MOHR DR,,HAYWARD,,,94545,441-77-102,d555f9feb277ccf0
-122.2727362,37.7966379,350,4TH ST,,OAKLAND,,,94607,1-147-47,f725a1e520406201
-122.0875384,37.7194914,17456,ALMOND RD,,CASTRO VALLEY,,,94546,84D-1250-78,63160563889c31c4
-121.9285853,37.5446743,166,FECUNDO TE,,FREMONT,,,94539,513-756-54,8d1687c6abe42dcb
-121.9287107,37.5446555,185,FAZENDA CM,,FREMONT,,,94539,513-756-54,1ddf74145ffb8bba
-121.9283695,37.5448984,186,FECUNDO TE,,FREMONT,,,94539,513-756-52,e0f7c63bc65aa6f3
-121.9282942,37.5450091,196,FECUNDO TE,,FREMONT,,,94539,513-756-51,8d9bc6a97142d756
-121.9283385,37.5451107,198,FECUNDO TE,,FREMONT,,,94539,513-756-51,d61041be4ca1e6ea
-121.9282168,37.5451773,206,FECUNDO TE,,FREMONT,,,94539,513-756-50,ce2a5e5250849c88
-121.9281891,37.5452695,208,FECUNDO TE,,FREMONT,,,94539,513-756-50,3749bad430c074c4
-121.928113,37.5444866,167,FECUNDO TE,,FREMONT,,,94539,513-756-49,3b98631dcfd679df
-121.9282031,37.5444011,157,FECUNDO TE,,FREMONT,,,94539,513-756-48,d04f92d5c15d8bad
-121.9280505,37.5447629,187,FECUNDO TE,,FREMONT,,,94539,513-756-35,648f86970ae49649
-121.9275652,37.5446614,42092,MISSION BL,,FREMONT,,,94539,513-756-86,b03a73049366f069
-121.9291393,37.5456955,41948,MISSION BL,,FREMONT,,,94539,513-756-86,f10ab3ff56ed39d4
-121.9268896,37.544936,251,FECUNDO TE,,FREMONT,,,94539,513-756-86,e0f680242553dc01
-121.9267227,37.5453964,257,FECUNDO TE,,FREMONT,,,94539,513-756-86,25fd4cc3b60a530b
-122.1128942,37.6458268,1559,WEST ST,,HAYWARD,,,94545,441-80-30,e33a6661c5af6bab
-122.11281,37.6455764,1561,WEST ST,,HAYWARD,,,94545,441-80-29,b4f4fe329a6fd7d6
-122.1138281,37.6441885,24763,MOHR DR,,HAYWARD,,,94545,441-77-3-4,d1b982bda6fe8a29
-122.1141121,37.6447286,24647,MOHR DR,,HAYWARD,,,94545,441-77-29,d859e7576b5b9c00
-122.1150375,37.6447963,24542,EDEN AV,,HAYWARD,,,94545,441-77-98,67a12febe1b33812
-122.1148542,37.6447413,24546,EDEN AV,,HAYWARD,,,94545,441-77-98,3d5e96a2e4b5f129
-122.1148454,37.6446012,24548,EDEN AV,,HAYWARD,,,94545,441-77-98,84a6ea557c54b233
-122.1152554,37.6445748,24554,EDEN AV,,HAYWARD,,,94545,441-77-98,1ae7b26ccc21067f
-122.1150848,37.6445749,24552,EDEN AV,,HAYWARD,,,94545,441-77-98,eb511fc36354d71c
-122.1151913,37.6447906,24540,EDEN AV,,HAYWARD,,,94545,441-77-98,6f5bee442336747d
-122.0868772,37.7203853,17446,ALMOND RD,,CASTRO VALLEY,,,94546,84D-1250-53,78fcf58ae24f7d26
-122.1151302,37.6439077,24594,EDEN AV,,HAYWARD,,,94545,441-77-22-2,6f21f55b6c5bbe64
-122.1136912,37.6438342,24881,MOHR DR,,HAYWARD,,,94545,441-77-4-3,72b6801b5368761d
-122.0868737,37.7197159,17464,ALMOND RD,,CASTRO VALLEY,,,94546,84D-1250-48,f5bf56b6b8309477
-122.0872454,37.7201212,17448,ALMOND RD,,CASTRO VALLEY,,,94546,84D-1250-45,b56e0a027fc88c50
-122.0864916,37.7200232,17466,ALMOND RD,,CASTRO VALLEY,,,94546,84D-1250-49,66d564bcdd6b80d2
-122.0873033,37.7193464,17462,ALMOND RD,,CASTRO VALLEY,,,94546,84D-1250-47,2a4589ba37a6f8ad
-122.0875537,37.719861,17450,ALMOND RD,,CASTRO VALLEY,,,94546,84D-1250-9-4,c73a82596a746a0a
-122.0877582,37.7196325,17454,ALMOND RD,,CASTRO VALLEY,,,94546,84D-1250-8-1,efa3c5b4f5fc8166
-122.2724828,37.7967086,333,5TH ST,,OAKLAND,,,94607,1-147-1,4ebaad81345290ad
-122.2615564,37.8380354,5160,CLAREMONT AV,,OAKLAND,,,94618,14-1226-1,5023a30902f89972
-122.2706024,37.8564857,1913,RUSSELL ST,,BERKELEY,,,94703,53-1679-20-1,dd1f835042761aa9
-122.2706024,37.8564857,1915,RUSSELL ST,,BERKELEY,,,94703,53-1679-20-1,970bb76d70a28245
-122.2706024,37.8564857,1911,RUSSELL ST,,BERKELEY,,,94703,53-1679-20-1,fa53d79903fc4f23
-122.2706024,37.8564857,1913,RUSSELL ST,,BERKELEY,,,94703,53-1679-20-1,dd1f835042761aa9
-122.1657101,37.7264596,806,ALVARADO ST,,SAN LEANDRO,,,94577,75-54-6,125366028caeac29
-121.7548309,37.6891056,202,PLUM TREE ST,,LIVERMORE,,,94551,99-1390-7,1a1e4ed0bf55a657
-121.7547752,37.6891389,204,PLUM TREE ST,,LIVERMORE,,,94551,99-1390-7,dc3cba2f5f3eeb9e
-121.754706,37.6891669,206,PLUM TREE ST,,LIVERMORE,,,94551,99-1390-7,741d9ee2133cec53
-121.7546416,37.6892037,208,PLUM TREE ST,,LIVERMORE,,,94551,99-1390-7,710c77792bd3fb14
-121.7545833,37.68923,210,PLUM TREE ST,,LIVERMORE,,,94551,99-1390-7,1ad0c28c9e202d8f
-121.7546598,37.6889827,214,PLUM TREE ST,,LIVERMORE,,,94551,99-1390-7,edf4d270e9bfe758
-121.7545263,37.6890475,218,PLUM TREE ST,,LIVERMORE,,,94551,99-1390-7,127a9dd54a341e04
-121.754468,37.6890738,220,PLUM TREE ST,,LIVERMORE,,,94551,99-1390-7,46cfa97635ea29b3
-121.7547156,37.6889493,212,PLUM TREE ST,,LIVERMORE,,,94551,99-1390-7,9a3e696d5bfb8117
-121.7545907,37.6890107,216,PLUM TREE ST,,LIVERMORE,,,94551,99-1390-7,b1c48a449069d723
-121.7545323,37.6888157,224,PLUM TREE ST,,LIVERMORE,,,94551,99-1390-7,b1905587d46603de
-121.7543988,37.6888805,228,PLUM TREE ST,,LIVERMORE,,,94551,99-1390-7,0ef7a720b130d4ed
-121.7543405,37.6889068,230,PLUM TREE ST,,LIVERMORE,,,94551,99-1390-7,9cea8ec5e50333cf
-121.7545881,37.6887823,222,PLUM TREE ST,,LIVERMORE,,,94551,99-1390-7,34e6d2e8629b8d78
-121.7544632,37.6888437,226,PLUM TREE ST,,LIVERMORE,,,94551,99-1390-7,17226649f91abf6e
-121.754417,37.6886595,234,PLUM TREE ST,,LIVERMORE,,,94551,99-1390-7,8de09b040be661f6
-121.7542835,37.6887243,238,PLUM TREE ST,,LIVERMORE,,,94551,99-1390-7,ad1d1bcef35d8517
-121.7542252,37.6887506,240,PLUM TREE ST,,LIVERMORE,,,94551,99-1390-7,1a7bf1e95e70d543
-121.7544728,37.6886261,232,PLUM TREE ST,,LIVERMORE,,,94551,99-1390-7,3576bacfca217f78
-121.7543479,37.6886875,236,PLUM TREE ST,,LIVERMORE,,,94551,99-1390-7,c91f6cecec1bb4d2
-121.7542927,37.6884993,244,PLUM TREE ST,,LIVERMORE,,,94551,99-1390-7,02a164c8d46bb716
-121.7541592,37.6885641,248,PLUM TREE ST,,LIVERMORE,,,94551,99-1390-7,5c6766e67e4c540a
-121.7541009,37.6885905,250,PLUM TREE ST,,LIVERMORE,,,94551,99-1390-7,8b9b38e1ff8542ae
-121.7543485,37.688466,242,PLUM TREE ST,,LIVERMORE,,,94551,99-1390-7,efc12da616e58f9f
-121.7542236,37.6885273,246,PLUM TREE ST,,LIVERMORE,,,94551,99-1390-7,632c84873e2297ca
-121.7541774,37.6883431,254,PLUM TREE ST,,LIVERMORE,,,94551,99-1390-7,795eac3daee86c47
-121.7540439,37.6884079,258,PLUM TREE ST,,LIVERMORE,,,94551,99-1390-7,6dd59447cb2d58a1
-121.7539856,37.6884343,260,PLUM TREE ST,,LIVERMORE,,,94551,99-1390-7,48a4162cd7355f1a
-121.7542332,37.6883098,252,PLUM TREE ST,,LIVERMORE,,,94551,99-1390-7,8342a724219bdb12
-121.7541083,37.6883711,256,PLUM TREE ST,,LIVERMORE,,,94551,99-1390-7,0d23087003f28546
-121.7549005,37.6893227,3727,FIRST ST,,LIVERMORE,,,94551,99-1390-7,8892420e5ff26a79
-121.7548313,37.6893507,3729,FIRST ST,,LIVERMORE,,,94551,99-1390-7,443b84fe0e1309bf
-121.754767,37.6893875,3731,FIRST ST,,LIVERMORE,,,94551,99-1390-7,b5986295b5e53133
-121.7547087,37.6894139,3733,FIRST ST,,LIVERMORE,,,94551,99-1390-7,dc769a15fca9c68a
-121.7552245,37.6891705,3719,FIRST ST,,LIVERMORE,,,94551,99-1390-7,dc367596a5edd838
-121.7551554,37.6891985,3721,FIRST ST,,LIVERMORE,,,94551,99-1390-7,0699899528bc8c55
-121.755091,37.6892353,3723,FIRST ST,,LIVERMORE,,,94551,99-1390-7,695aa02a87ccd1ce
-121.7550327,37.6892617,3725,FIRST ST,,LIVERMORE,,,94551,99-1390-7,4391cbe51229569f
-121.7548438,37.6882447,116,APRICOT ST,,LIVERMORE,,,94551,99-1390-6,fe19a2f0f1be80a5
-121.7548038,37.6881924,118,APRICOT ST,,LIVERMORE,,,94551,99-1390-6,ae8447540793d87d
-121.7547664,37.6881436,120,APRICOT ST,,LIVERMORE,,,94551,99-1390-6,d2ed65c586e8ac04
-121.7547305,37.6880967,122,APRICOT ST,,LIVERMORE,,,94551,99-1390-6,be179cb9b18558e7
-121.7546884,37.6880449,124,APRICOT ST,,LIVERMORE,,,94551,99-1390-6,c362e07ca4f5a64a
-121.7546525,37.687998,126,APRICOT ST,,LIVERMORE,,,94551,99-1390-6,7583a408e35273d6
-121.7551536,37.6886443,104,APRICOT ST,,LIVERMORE,,,94551,99-1390-6,04d9cfae031eed2b
-121.7551135,37.688592,106,APRICOT ST,,LIVERMORE,,,94551,99-1390-6,46f1d8baad020b8e
-121.7550762,37.6885432,108,APRICOT ST,,LIVERMORE,,,94551,99-1390-6,05e2fa5b284d37f1
-121.7550403,37.6884963,110,APRICOT ST,,LIVERMORE,,,94551,99-1390-6,706e54a4ac229215
-121.7549982,37.6884445,112,APRICOT ST,,LIVERMORE,,,94551,99-1390-6,c1528df0f85883e7
-121.7549623,37.6883976,114,APRICOT ST,,LIVERMORE,,,94551,99-1390-6,f59ea8deefcdb725
-121.755187,37.6887023,102,APRICOT ST,,LIVERMORE,,,94551,99-1390-6,0119d8752910a9a2
-121.7546264,37.6883424,215,PLUM TREE ST,,LIVERMORE,,,94551,99-1390-6,6e1ea127f396496d
-121.7545864,37.6882901,217,PLUM TREE ST,,LIVERMORE,,,94551,99-1390-6,567bda290a4e312e
-121.754549,37.6882413,219,PLUM TREE ST,,LIVERMORE,,,94551,99-1390-6,d31e1b1618391808
-121.7545131,37.6881944,221,PLUM TREE ST,,LIVERMORE,,,94551,99-1390-6,c0c1c0d94c576bf1
-121.7544711,37.6881426,223,PLUM TREE ST,,LIVERMORE,,,94551,99-1390-6,871ec2536b109952
-121.7544351,37.6880957,225,PLUM TREE ST,,LIVERMORE,,,94551,99-1390-6,7a9f6a14e29d47e8
-121.7549362,37.688742,203,PLUM TREE ST,,LIVERMORE,,,94551,99-1390-6,68f359a74fbd74b0
-121.7548962,37.6886897,205,PLUM TREE ST,,LIVERMORE,,,94551,99-1390-6,64882712e67e1c76
-121.7548588,37.6886409,207,PLUM TREE ST,,LIVERMORE,,,94551,99-1390-6,5286233eeb3e1d67
-121.7548229,37.688594,209,PLUM TREE ST,,LIVERMORE,,,94551,99-1390-6,bd6e709de4926b6f
-121.7547808,37.6885422,211,PLUM TREE ST,,LIVERMORE,,,94551,99-1390-6,ebee805b925a7c22
-121.7547449,37.6884953,213,PLUM TREE ST,,LIVERMORE,,,94551,99-1390-6,06dbcfedd8961923
-121.7549697,37.6888,201,PLUM TREE ST,,LIVERMORE,,,94551,99-1390-6,d3b91abbdc4426e2
-121.7556095,37.6887424,101,APRICOT ST,,LIVERMORE,,,94551,99-1390-5,c8a59d457eed55f7
-121.7556732,37.6887198,103,APRICOT ST,,LIVERMORE,,,94551,99-1390-5,3897dd0bdaf9a124
-121.7557376,37.6886853,105,APRICOT ST,,LIVERMORE,,,94551,99-1390-5,b95330aac808f16f
-121.7558093,37.6886584,107,APRICOT ST,,LIVERMORE,,,94551,99-1390-5,bd2c6d039dff434b
-121.7558666,37.6886307,109,APRICOT ST,,LIVERMORE,,,94551,99-1390-5,84b5e2999054cb3a
-121.7555573,37.6885639,113,APRICOT ST,,LIVERMORE,,,94551,99-1390-5,038630c958b09bf6
-121.7556934,37.6885025,117,APRICOT ST,,LIVERMORE,,,94551,99-1390-5,d2a7b8b06a4eb312
-121.7557507,37.6884748,119,APRICOT ST,,LIVERMORE,,,94551,99-1390-5,312ea9e3b2263d48
-121.7554936,37.6885864,111,APRICOT ST,,LIVERMORE,,,94551,99-1390-5,46f1313136a5388a
-121.7556217,37.6885294,115,APRICOT ST,,LIVERMORE,,,94551,99-1390-5,6a74a40832608217
-121.7554354,37.6883943,123,APRICOT ST,,LIVERMORE,,,94551,99-1390-5,c4aab2e5516d0769
-121.7555715,37.6883329,127,APRICOT ST,,LIVERMORE,,,94551,99-1390-5,2cc985ab607fef45
-121.7556288,37.6883052,129,APRICOT ST,,LIVERMORE,,,94551,99-1390-5,4d5466527e7d578a
-121.7553717,37.6884168,121,APRICOT ST,,LIVERMORE,,,94551,99-1390-5,66e4124d4c312c71
-121.7554998,37.6883598,125,APRICOT ST,,LIVERMORE,,,94551,99-1390-5,ef56796f117ef244
-121.7553195,37.6882383,133,APRICOT ST,,LIVERMORE,,,94551,99-1390-5,f51df9d21cddf86d
-121.7554556,37.688177,137,APRICOT ST,,LIVERMORE,,,94551,99-1390-5,e31c0499c00a97a7
-121.7555128,37.6881493,139,APRICOT ST,,LIVERMORE,,,94551,99-1390-5,c9934ce819ee44c9
-121.7552558,37.6882609,131,APRICOT ST,,LIVERMORE,,,94551,99-1390-5,62c0a69bae1334ee
-121.7553839,37.6882039,135,APRICOT ST,,LIVERMORE,,,94551,99-1390-5,b04d1277560b8c5c
-121.7553808,37.6879803,141,APRICOT ST,,LIVERMORE,,,94551,99-1390-5,a3eea94fe3a24c8b
-121.7553408,37.687928,143,APRICOT ST,,LIVERMORE,,,94551,99-1390-5,f65304e29c76c704
-121.7553034,37.6878792,145,APRICOT ST,,LIVERMORE,,,94551,99-1390-5,7998b27c6c5edd2c
-121.7552675,37.6878323,147,APRICOT ST,,LIVERMORE,,,94551,99-1390-5,7bfeccac4f906b87
-121.7551509,37.6880819,149,APRICOT ST,,LIVERMORE,,,94551,99-1390-5,89f7baf20d919446
-121.7551109,37.6880297,151,APRICOT ST,,LIVERMORE,,,94551,99-1390-5,5c515cb93a271dbb
-121.7550735,37.6879809,153,APRICOT ST,,LIVERMORE,,,94551,99-1390-5,7754de181a362d63
-121.7550376,37.687934,155,APRICOT ST,,LIVERMORE,,,94551,99-1390-5,a139b69ec9ae861b
-121.7557172,37.6889452,3711,FIRST ST,,LIVERMORE,,,94551,99-1390-5,368e0b01074543f4
-121.7556481,37.6889732,3713,FIRST ST,,LIVERMORE,,,94551,99-1390-5,1007a3272a9ed594
-121.7555837,37.68901,3715,FIRST ST,,LIVERMORE,,,94551,99-1390-5,9748ea81cbf9c5a3
-121.7555254,37.6890364,3717,FIRST ST,,LIVERMORE,,,94551,99-1390-5,6b652d0da607ab2f
-121.7560413,37.688793,3703,FIRST ST,,LIVERMORE,,,94551,99-1390-5,835689934b08c6de
-121.7559721,37.688821,3705,FIRST ST,,LIVERMORE,,,94551,99-1390-5,ba606dec95c4ae5c
-121.7559077,37.6888578,3707,FIRST ST,,LIVERMORE,,,94551,99-1390-5,d7d1d41b2ee6a7c8
-121.7558495,37.6888842,3709,FIRST ST,,LIVERMORE,,,94551,99-1390-5,dd8d1123e79b4168
-122.0825545,37.6683888,22875,WATKINS ST,,HAYWARD,,,94541,428-81-20-1,136b885a307c56be
-122.0571716,37.6767659,2449,CENTENNIAL LN,,HAYWARD,,,94541,426-50-96,d7d93a538545324d
-122.0576296,37.6767637,2448,CENTENNIAL LN,,HAYWARD,,,94541,426-50-102,bd107fd959801ba6
-122.057752,37.6770009,24038,MADEIROS AV,,HAYWARD,,,94541,426-50-94,ae44c8d1bf450f9b
-122.0575331,37.6770301,2425,CENTENNIAL LN,,HAYWARD,,,94541,426-50-94,6774a2cc3a43c0a3
-122.0575085,37.6773977,23979,MADEIROS AV,,HAYWARD,,,94541,426-50-94,d8c5f7ae3635798f
-122.0570884,37.6770728,2437,CENTENNIAL LN,,HAYWARD,,,94541,426-50-95,1129819ac5e0078f
-122.0579541,37.6766782,2436,CENTENNIAL LN,,HAYWARD,,,94541,426-50-92,a9550d027d9c71f5
-122.0582133,37.6767745,2424,CENTENNIAL LN,,HAYWARD,,,94541,426-50-93,ab8741e652b8760d
-122.0582042,37.6770767,24070,MADEIROS AV,,HAYWARD,,,94541,426-50-61,d03d196cede1034e
-122.0584941,37.6771198,24016,MADEIROS AV,,HAYWARD,,,94541,426-50-60,ac9634e840a61f79
-122.0584525,37.6775132,24065,MADEIROS AV,,HAYWARD,,,94541,426-50-103,ae24dae3418dcec8
-122.0580491,37.6770515,24068,MADEIROS AV,,HAYWARD,,,94541,426-50-91-2,aa8407f93b4b7bd4
-122.0578977,37.6770206,24066,MADEIROS AV,,HAYWARD,,,94541,426-50-91-2,12d8d099fda79c6e
-122.0578362,37.6774894,24063,MADEIROS AV,,HAYWARD,,,94541,426-50-104-1,a4fbbbfc4f9540fc
-122.2684602,37.8308935,4101,MARTIN LUTHER KING JR WY,,OAKLAND,,,94609,12-1014-5-2,352f4ff2d890c3e9
-122.2684379,37.8311523,4127,MARTIN LUTHER KING JR WY,,OAKLAND,,,94609,12-1014-3-3,91aa35de50a71135
-122.10823,37.7019174,16292,FOOTHILL BL,,SAN LEANDRO,,,94578,80A-239-84,9dbebf0f6b0aefce
-121.9941311,37.5395389,39009,CINDY ST,,FREMONT,,,94538,501-958-104-9,742a0bb8e78cbe1f
-121.9941311,37.5395389,39120,SERRA PL,,FREMONT,,,94538,501-958-104-9,41a090aff755b4aa
-121.9941311,37.5395389,4686,MOWRY AV,,FREMONT,,,94538,501-958-104-9,ccbf9c6bdca0bb74
-121.9946952,37.5402048,4660,MOWRY AV,,FREMONT,,,94538,501-958-103-1,df2a8e558bc68903
-122.1373887,37.6798541,15787,WASHINGTON AV,,SAN LORENZO,,,94580,411-24-5,9bbbb9a553121d7c
-122.1375737,37.6801948,15785,WASHINGTON AV,,SAN LORENZO,,,94580,411-24-4,575daea048756609
-122.1377444,37.6804078,15775,WASHINGTON AV,,SAN LORENZO,,,94580,411-24-3,b8dcad3c9a57cc8a
-122.2917317,37.8404726,5885,HORTON ST,,EMERYVILLE,,,94608,49-1325-108,0318ea4d180514fd
-122.2775379,37.8112736,1917,WEST ST,,OAKLAND,,,94612,3-33-45,d90d35d8a0e96a56
-122.1887607,37.7399196,8900,EDES AV,,OAKLAND,,,94621,42-4313-10,3871bdcacca0531c
-122.2679065,37.7964571,174,6TH ST,,OAKLAND,,,94607,1-175-52,182b32f5cf2a4ac7
-121.7941226,37.7062532,698,PORTOLA AV,,LIVERMORE,,,94551,903-10-66,2bcb6a1ae3c3d03f
-121.7947747,37.7065202,680,PORTOLA AV,Z,LIVERMORE,,,94551,903-10-66,8b027f7b08dfbb4c
-121.7946111,37.7064305,692,PORTOLA AV,Z,LIVERMORE,,,94551,903-10-66,291f32e735bb903f
-121.9557417,37.5059561,4273,SOLAR WY,,FREMONT,,,94538,525-1652-11-3,1accb57ab9fee3d8
-121.9564597,37.5064347,4280,TECHNOLOGY DR,,FREMONT,,,94538,525-1652-9-3,06a34263ce2e195d
-121.8993153,37.6952326,5934,GIBRALTAR DR,STE 201,PLEASANTON,,,94588,941-2759-79,54d0bfa1f4967051
-121.8993248,37.6953398,5934,GIBRALTAR DR,,PLEASANTON,,,94588,941-2759-79,3b8beb5aaf669a4d
-121.8986686,37.6952689,4698,WILLOW RD,,PLEASANTON,,,94588,941-2759-79,7996242f3877211d
-121.8988784,37.694485,4696,WILLOW RD,,PLEASANTON,,,94588,941-2759-78,635f655f01f530b7
-122.2362601,37.7832982,1245,23RD AV,,OAKLAND,,,94606,20-106-8-2,6cd84b4c10f5b65d
-122.2362601,37.7832982,1247,23RD AV,,OAKLAND,,,94606,20-106-8-2,6434061b04947b07
-122.2362601,37.7832982,1249,23RD AV,,OAKLAND,,,94606,20-106-8-2,906e14c552c098c2
-122.2364561,37.7831633,1233,23RD AV,,OAKLAND,,,94606,20-106-8-2,0eb5d87d64ffe06a
-122.2364561,37.7831633,1235,23RD AV,,OAKLAND,,,94606,20-106-8-2,b4ff56867c5dd1e1
-122.2365353,37.7833893,2285,E 14TH ST,,OAKLAND,,,94606,20-106-6-4,f4502d92cfed5d78
-122.2365353,37.7833893,2285,INTERNATIONAL BL,,OAKLAND,,,94606,20-106-6-4,d9dfb0b0194f288f
-122.2516405,37.8368217,5253,COLLEGE AV,,OAKLAND,,,94618,14-1240-4-1,36b066298655237f
-122.2516014,37.836948,5255,COLLEGE AV,,OAKLAND,,,94618,14-1240-3-2,86fdcf813f17d24f
-121.8798752,37.6587013,4795,JONAVI LN,,PLEASANTON,,,94566,94-155-32,02a0ca868723b9b4
-121.8799158,37.6586756,4795,JONAVI LN,APT 1,PLEASANTON,,,94566,94-155-32,7405a45f6d7218e1
-121.879924,37.6586509,4795,JONAVI LN,APT 2,PLEASANTON,,,94566,94-155-32,684498e98bd476a8
-121.8799379,37.6586245,4795,JONAVI LN,APT 3,PLEASANTON,,,94566,94-155-32,d25531dc8f30b0f6
-121.8798798,37.6586372,301,OLD BERNAL AV,,PLEASANTON,,,94566,94-155-32,94c540b7c71ca035
-121.8800607,37.658686,4851,JONAVI LN,,PLEASANTON,,,94566,94-155-29,a17038490cedc95d
-121.8801155,37.6586184,327,OLD BERNAL AV,,PLEASANTON,,,94566,94-155-29,1cdb8ce5ad89d58c
-121.9267872,37.4839934,47201,WARM SPRINGS BL,,FREMONT,,,94539,519-1691-3,02823766e872b4a1
-121.9267872,37.4839934,47215,WARM SPRINGS BL,,FREMONT,,,94539,519-1691-3,8dc2de359ef0215f
-121.9267872,37.4839934,47209,WARM SPRINGS BL,,FREMONT,,,94539,519-1691-3,3c110b7f1af60f48
-121.9267872,37.4839934,47205,WARM SPRINGS BL,,FREMONT,,,94539,519-1691-3,4e894045587ad043
-121.9264391,37.4826518,47323,WARM SPRINGS BL,,FREMONT,,,94539,519-1755-108,17527098304d60b7
-121.9264391,37.4826518,47333,WARM SPRINGS BL,,FREMONT,,,94539,519-1755-108,e67436fae1418309
-121.9264391,37.4826518,47339,WARM SPRINGS BL,,FREMONT,,,94539,519-1755-108,2b4ce28465000b1e
-121.9264391,37.4826518,47343,WARM SPRINGS BL,,FREMONT,,,94539,519-1755-108,f1767e1a246c9187
-121.9264391,37.4826518,47347,WARM SPRINGS BL,,FREMONT,,,94539,519-1755-108,4987efee1a74d757
-121.9264391,37.4826518,47320,MISSION FALLS CT,,FREMONT,,,94539,519-1755-108,5d27064d8a3db73e
-121.9283343,37.4825323,47283,MISSION FALLS CT,,FREMONT,,,94539,519-1755-43,93e840a49f58dba7
-121.9283168,37.4824943,47289,MISSION FALLS CT,,FREMONT,,,94539,519-1755-43,d9f02a068ca7d4ed
-121.9277471,37.4820549,47317,MISSION FALLS CT,,FREMONT,,,94539,519-1755-17,6d74a04709d69bbe
-121.9275147,37.4837603,47224,MISSION FALLS CT,,FREMONT,,,94539,519-1755-15,14fd4ca2688dba90
-121.9275147,37.4837603,47212,MISSION FALLS CT,,FREMONT,,,94539,519-1755-15,7be8792258a8ad22
-121.9279694,37.4821047,47315,MISSION FALLS CT,,FREMONT,,,94539,519-1755-13,010d3e339f763ab2
-121.9283078,37.482587,47281,MISSION FALLS CT,,FREMONT,,,94539,519-1755-13,0dd79d843b7e1c6d
-122.2846547,37.844233,6105,SAN PABLO AV,,OAKLAND,,,94608,16-1459-30,2e2b38e350c2e5c9
-122.0833593,37.6751331,22491,MAPLE CT,B,HAYWARD,,,94541,428-61-61-4,4d1bbbf0df376146
-122.083501,37.6753741,22477,MAPLE CT,,HAYWARD,,,94541,428-61-61-4,c7579c4a772c2768
-122.0835642,37.6755037,22471,MAPLE CT,,HAYWARD,,,94541,428-61-61-4,1bccbe24345b1f5a
-122.0841101,37.6754932,22336,MAIN ST,,HAYWARD,,,94541,428-61-61-4,6f1f3dd67ef5b92d
-122.0846111,37.6753226,22330,MAIN ST,,HAYWARD,,,94541,428-61-61-4,d2b376ea5e183a2b
-122.0845096,37.6755681,22334,MAIN ST,,HAYWARD,,,94541,428-61-61-4,3e81645da5bec1ee
-122.0834261,37.6752524,22485,MAPLE CT,,HAYWARD,,,94541,428-61-61-4,ac5a25cc2c40159a
-122.0844792,37.6753236,22338,MAIN ST,,HAYWARD,,,94541,428-61-61-4,e966b50a722c77a7
-122.0838159,37.6758782,22455,MAPLE CT,402,HAYWARD,,,94541,428-61-61-3,25989c8bed627c8c
-122.0842022,37.6756082,22412,MAIN ST,,HAYWARD,,,94541,428-61-61-3,970417c061e05d77
-122.0841482,37.6758947,1041,MCKEEVER AV,,HAYWARD,,,94541,428-61-61-3,761908a70a3a828e
-122.0845037,37.6757952,1013,MCKEEVER AV,,HAYWARD,,,94541,428-61-61-3,2f3224a285562562
-121.7690596,37.6832984,2205,RAILROAD AV,,LIVERMORE,,,94550-3133,98-407-31,35403f8a30765555
-121.7687067,37.6826902,30,S LIVERMORE AV,,LIVERMORE,,,94550,98-407-32,7c6fbb97f0d007fb
-122.06378,37.6466157,26685,MISSION BL,,HAYWARD,,,94544,452-36-112,30749c2f625011b5
-122.063605,37.646397,26699,MISSION BL,,HAYWARD,,,94544,452-36-112,f47506f48f2f1406
-122.2682163,37.8334776,673,45TH ST,,OAKLAND,,,94609,13-1093-37,a635a19ced5f54b9
-122.2528975,37.8220449,581,EL DORADO AV,,OAKLAND,,,94611,12-932-93,29fe1a53796fef8d
-122.2528917,37.8221065,577,EL DORADO AV,,OAKLAND,,,94611,12-932-93,b5546bb32db4d12a
-122.1843609,37.7906581,4445,DAVENPORT AV,,OAKLAND,,,94619,37-2540-24,3c2f21ade1a5e63e
-122.1225292,37.6736505,17760,HESPERIAN BL,,HAYWARD,,,94541,412-71-23-4,fef209927a6250f7
-122.1224754,37.6735612,17780,HESPERIAN BL,,HAYWARD,,,94541,412-71-23-4,d506bfb1c9bccc61
-122.1224202,37.6734709,17800,HESPERIAN BL,,HAYWARD,,,94541,412-71-23-4,069a84b701011cc4
-122.1223003,37.6732915,17856,HESPERIAN BL,,HAYWARD,,,94541,412-71-23-4,206c56e64cb61ac3
-122.1221856,37.6731124,17880,HESPERIAN BL,,HAYWARD,,,94541,412-71-23-4,f71afaa705149eaa
-122.1221278,37.6730254,17900,HESPERIAN BL,,HAYWARD,,,94541,412-71-23-4,9343ee29bf11b2a5
-122.1220739,37.672934,17950,HESPERIAN BL,,HAYWARD,,,94541,412-71-23-4,52c729504ca1a238
-122.1220133,37.672847,18000,HESPERIAN BL,,HAYWARD,,,94541,412-71-23-4,d7c5829b5b4f7c45
-122.1219552,37.6727551,18030,HESPERIAN BL,,HAYWARD,,,94541,412-71-23-4,cfd788c622385030
-122.1218408,37.6725789,18050,HESPERIAN BL,,HAYWARD,,,94541,412-71-23-4,dfe7b84eae239785
-122.1217842,37.6724875,18070,HESPERIAN BL,,HAYWARD,,,94541,412-71-23-4,6c6d6f4edd0a0886
-122.1217276,37.6723979,18100,HESPERIAN BL,,HAYWARD,,,94541,412-71-23-4,5b38c51ddfbcb820
-122.1216697,37.6723087,18150,HESPERIAN BL,,HAYWARD,,,94541,412-71-23-4,09c842de212a6601
-122.1216104,37.6722185,18200,HESPERIAN BL,,HAYWARD,,,94541,412-71-23-4,a835986ce52e8e7d
-122.1215511,37.6721293,18200,HESPERIAN BL,,HAYWARD,,,94541,412-71-23-4,a2b774a0fa772cac
-122.1213472,37.6717854,18400,HESPERIAN BL,,HAYWARD,,,94541,412-71-23-4,c8f12f54e5c6bf8d
-122.1219,37.6726648,18040,HESPERIAN BL,,HAYWARD,,,94541,412-71-23-4,6b3c830f8f58e892
-122.1222411,37.6732046,17860,HESPERIAN BL,,HAYWARD,,,94541,412-71-23-4,d0c549ef953af7e4
-122.1223582,37.6733818,17850,HESPERIAN BL,,HAYWARD,,,94541,412-71-23-4,0827b195446a6796
-122.1210551,37.6712972,18502,HESPERIAN BL,,HAYWARD,,,94541,412-71-23-4,0a9e4a6ac0e17033
-122.1219237,37.6723071,18074,HESPERIAN BL,,SAN LORENZO,,,94580,412-71-24-8,e45d7064deb21668
-122.1226084,37.6737328,17750,HESPERIAN BL,,HAYWARD,,,94541,412-71-24-8,3f7fce0df90fa6fe
-122.1215001,37.6720186,18250,HESPERIAN BL,,HAYWARD,,,94541,412-71-24-8,9d7d9843779d0527
-122.1214526,37.6719442,18300,HESPERIAN BL,,HAYWARD,,,94541,412-71-24-8,1130574f035dad2e
-122.1214051,37.6718699,18350,HESPERIAN BL,,HAYWARD,,,94541,412-71-24-8,da5c58e27c9e553b
-122.1229217,37.6740383,17630,HESPERIAN BL,,HAYWARD,,,94541,412-71-24-8,65db6ba232812241
-122.1211649,37.6714566,18444,HESPERIAN BL,,HAYWARD,,,94541,412-71-24-8,34cfb0183105e503
-122.2887287,37.8558296,1030,GRAYSON ST,,BERKELEY,,,94710,53-1661-54,29fb0c54404b81be
-121.8117917,37.6864728,451,DISCOVERY DR,,LIVERMORE,,,94551,904-12-51,cacffae516d9e11e
-121.8101779,37.6864221,1100,VOYAGER ST,,LIVERMORE,,,94551,904-12-51,8c48992acc9c20c4
-122.125896,37.7248197,2314,LAKEVIEW DR,,SAN LEANDRO,,,94577,79-26-27,6dc701399bb27916
-122.1273849,37.726719,1861,ASTOR DR,,SAN LEANDRO,,,94577,79-26-3-1,4c332b7da68d2ebb
-122.1269921,37.7273617,1881,ASTOR DR,,SAN LEANDRO,,,94577,79-26-3-1,5177095e37ec759c
-122.0524185,37.6817723,23354,MAUD AV,,HAYWARD,,,94541,417-210-91,956a281e60e7f52d
-122.0525054,37.6818868,23350,MAUD AV,,HAYWARD,,,94541,417-210-90,c46f13eb3d294edd
-122.0523607,37.6816438,23386,MAUD AV,,HAYWARD,,,94541,417-210-95,2c12e1aab59b97ca
-122.0523839,37.6816965,23358,MAUD AV,,HAYWARD,,,94541,417-210-95,c6ec3f852bb660ed
-121.8698329,37.700673,4011,PIMLICO DR,,PLEASANTON,,,94588,946-1101-35-4,6add5701898756e2
-121.9591312,37.5365927,40837,HIGH ST,,FREMONT,,,94538,525-1692-1,3a37708256d9ccb7
-121.9591312,37.5365927,40849,HIGH ST,,FREMONT,,,94538,525-1692-1,12489f4c90727abc
-122.0507383,37.7031903,5182,CROW CANYON RD,,CASTRO VALLEY,,,94552,85-1520-6-1,9ea1157a2de5bde4
-122.0515754,37.7031986,5782,CROW CANYON RD,,CASTRO VALLEY,,,94552,85-1520-6-1,fa9374b7670c7ef6
-122.2589314,37.8937463,1033,MILLER AV,,BERKELEY,,,94708,63-2969-34-38,cc9edb925bafb7d3
-122.0689072,37.6615812,1155,PALISADE ST,,HAYWARD,,,94542,445-170-38-4,181754c6048b7a52
-122.0193882,37.5915144,1328,DECOTO RD,STE 130,UNION CITY,,,94587,87-19-20,06a99b88cd71e371
-122.0193882,37.5915144,1328,DECOTO RD,STE 140,UNION CITY,,,94587,87-19-20,09fd3c105269d4fb
-122.0193882,37.5915144,1328,DECOTO RD,STE 160,UNION CITY,,,94587,87-19-20,d3839e268c760cec
-122.0193882,37.5915144,1330,DECOTO RD,,UNION CITY,,,94587,87-19-20,ba0d858639e96682
-122.0193882,37.5915144,1320,DECOTO RD,,UNION CITY,,,94587,87-19-20,7de08d112f405b69
-122.0193882,37.5915144,1328,DECOTO RD,,UNION CITY,,,94587,87-19-20,95db38438dfda0ff
-122.0193882,37.5915144,1328,DECOTO RD,STE 100,UNION CITY,,,94587,87-19-20,ebaef60a506a415f
-122.0193882,37.5915144,1328,DECOTO RD,STE 120,UNION CITY,,,94587,87-19-20,5addf209070c8852
-122.0193882,37.5915144,1328,DECOTO RD,STE 124,UNION CITY,,,94587,87-19-20,479075dca5972b1d
-122.0884764,37.6121072,2571,ADMIRAL CI,,HAYWARD,,,94545,456-102-169,41962b01cf8a6d5a
-122.0886338,37.6120496,202,RIPTIDE WY,,HAYWARD,,,94545,456-102-168,8f158b57da4a4d47
-122.0887794,37.6119902,204,RIPTIDE WY,,HAYWARD,,,94545,456-102-167,ee19d7f94a66a5d2
-122.0886307,37.6117671,29008,MARINA DR,,HAYWARD,,,94545,456-102-166,6787de42f3b496d7
-122.0885472,37.6116376,29010,MARINA DR,,HAYWARD,,,94545,456-102-165,099a98344f785317
-122.0884767,37.6115244,29012,MARINA DR,,HAYWARD,,,94545,456-102-164,af1561f55ece9a2f
-122.0882345,37.6115574,2678,ADMIRAL CI,,HAYWARD,,,94545,456-102-163,7e7005982c64ed4a
-122.0883076,37.611675,2676,ADMIRAL CI,,HAYWARD,,,94545,456-102-162,980f8d302cb63f47
-122.0883727,37.6117902,2674,ADMIRAL CI,,HAYWARD,,,94545,456-102-161,9bc62f5721f86ed6
-122.0883848,37.6119333,2673,ADMIRAL CI,,HAYWARD,,,94545,456-102-160,fc766e8511224b0f
-122.0881198,37.6117719,2668,ADMIRAL CI,,HAYWARD,,,94545,456-102-159,ecf61f3eae8308e2
-122.0880317,37.6116428,2670,ADMIRAL CI,,HAYWARD,,,94545,456-102-158,9a0486b193930762
-122.0878268,37.6117304,2664,ADMIRAL CI,,HAYWARD,,,94545,456-102-157,f40d85c248237098
-122.0879111,37.6118529,2662,ADMIRAL CI,,HAYWARD,,,94545,456-102-156,08adda60e459d6dc
-122.0877253,37.6119307,2658,ADMIRAL CI,,HAYWARD,,,94545,456-102-155,4fd1b695f767115f
-122.0876303,37.6118042,2660,ADMIRAL CI,,HAYWARD,,,94545,456-102-154,decfe0c9c8a81c04
-122.087431,37.6118844,2656,ADMIRAL CI,,HAYWARD,,,94545,456-102-153,8055238af2625790
-122.0875089,37.6120212,2654,ADMIRAL CI,,HAYWARD,,,94545,456-102-152,c4a6d01c91dd4f2e
-122.0873273,37.6120921,2650,ADMIRAL CI,,HAYWARD,,,94545,456-102-151,08450393ae43323e
-122.0872357,37.611963,2652,ADMIRAL CI,,HAYWARD,,,94545,456-102-150,fb170a1a8a9d05b4
-122.0870316,37.6120463,2648,ADMIRAL CI,,HAYWARD,,,94545,456-102-149,9f43e0b0f718efd4
-122.0871124,37.6121767,2646,ADMIRAL CI,,HAYWARD,,,94545,456-102-148,dabd8b94f7a4272f
-122.0870271,37.612522,2643,ADMIRAL CI,,HAYWARD,,,94545,456-102-147,be5c41bdf7367d1a
-122.0870987,37.6126438,2641,ADMIRAL CI,,HAYWARD,,,94545,456-102-146,00131b19b92d383c
-122.0871727,37.6127584,2639,ADMIRAL CI,,HAYWARD,,,94545,456-102-145,db79bd270c01f442
-122.0873097,37.6125503,2647,ADMIRAL CI,,HAYWARD,,,94545,456-102-144,c340706fad9e5780
-122.0872398,37.6124363,2745,ADMIRAL CI,,HAYWARD,,,94545,456-102-143,1d62021bf74daa72
-122.0874422,37.6123471,2651,ADMIRAL CI,,HAYWARD,,,94545,456-102-142,7ce1a982603f9a5b
-122.0875108,37.6124637,2649,ADMIRAL CI,,HAYWARD,,,94545,456-102-141,47fb7e2c33c7473c
-122.0878076,37.6124914,2653,ADMIRAL CI,,HAYWARD,,,94545,456-102-140,90caa1fd49c0245b
-122.0877336,37.6123768,2655,ADMIRAL CI,,HAYWARD,,,94545,456-102-139,13ae617adca264a8
-122.0876602,37.612262,2657,ADMIRAL CI,,HAYWARD,,,94545,456-102-138,580368e7ebfc100e
-122.087836,37.6121864,2663,ADMIRAL CI,,HAYWARD,,,94545,456-102-137,10cd12229b1a62ed
-122.0879118,37.6123051,2661,ADMIRAL CI,,HAYWARD,,,94545,456-102-136,343961d6ea32cf76
-122.0879858,37.6124197,2659,ADMIRAL CI,,HAYWARD,,,94545,456-102-135,7abbdf7c92e66bcb
-122.0882152,37.6123271,2560,ADMIRAL CI,,HAYWARD,,,94545,456-102-134,5362d7972953f359
-122.0881412,37.6122126,2562,ADMIRAL CI,,HAYWARD,,,94545,456-102-133,327b4cd6f056a943
-122.0880702,37.6120985,2665,ADMIRAL CI,,HAYWARD,,,94545,456-102-132,939e6721c3aba5ee
-122.0882216,37.6127867,2544,ADMIRAL CI,,HAYWARD,,,94545,456-102-131,9e41f8eec983ff1a
-122.0881476,37.6126721,2546,ADMIRAL CI,,HAYWARD,,,94545,456-102-130,1cb574a66fefb0ec
-122.0880737,37.6125543,2548,ADMIRAL CI,,HAYWARD,,,94545,456-102-129,761ac33314ac5b9d
-122.0883024,37.6124509,2556,ADMIRAL CI,,HAYWARD,,,94545,456-102-128,4d41d8b74ae3cb6f
-122.0883308,37.6124973,2558,ADMIRAL CI,,HAYWARD,,,94545,456-102-128,9890c9b99406ef37
-122.088365,37.6125762,2554,ADMIRAL CI,,HAYWARD,,,94545,456-102-127,d6abb7d76b8134a3
-122.088439,37.6126907,2552,ADMIRAL CI,,HAYWARD,,,94545,456-102-126,12bbcf07a8d39225
-122.0884704,37.6127391,2550,ADMIRAL CI,,HAYWARD,,,94545,456-102-126,1b14de9035ef3c3f
-122.0888128,37.6128414,2559,ADMIRAL CI,,HAYWARD,,,94545,456-102-125,ccf2ad2c745c449d
-122.088939,37.6129901,2557,ADMIRAL CI,,HAYWARD,,,94545,456-102-124,eea57af4884e2528
-122.0890283,37.6127588,29006,MARINA DR,,HAYWARD,,,94545,456-102-123,172e8f617a34cdfb
-122.0889686,37.6126247,2561,ADMIRAL CI,,HAYWARD,,,94545,456-102-122,4a4eb53362cefa14
-122.0887476,37.6125305,2563,ADMIRAL CI,,HAYWARD,,,94545,456-102-121,9d72beecf33afd64
-122.0889454,37.6124483,2565,ADMIRAL CI,,HAYWARD,,,94545,456-102-120,732688084f313a82
-122.0888367,37.6122787,203,RIPTIDE WY,,HAYWARD,,,94545,456-102-119,6f5363c6a065a4ba
-122.0886326,37.612357,201,RIPTIDE WY,,HAYWARD,,,94545,456-102-118,886ad850dde3b83a
-122.264381,37.8068683,274,19TH ST,,OAKLAND,,,94612,8-635-2-1,c30c58786e228f48
-122.2404947,37.7878217,1826,E 15TH ST,,OAKLAND,,,94606,20-164-25,6286a276d67824dd
-122.2404947,37.7878217,1825,GLEASON WY,,OAKLAND,,,94606,20-164-25,e6c8f66a576e4175
-122.2695888,37.8032714,1314,FRANKLIN ST,,OAKLAND,,,94612,2-55-2,be71131cd030aeb1
-121.8666583,37.6654698,4000,BOTTARINI CT,,PLEASANTON,,,94566,946-4631-43,55c989221a45386d
-121.8667528,37.6653853,4006,BOTTARINI CT,,PLEASANTON,,,94566,946-4631-42,2f76962241c9a72f
-121.8671401,37.6654065,4013,BOTTARINI CT,,PLEASANTON,,,94566,946-4631-40,3abf0c31971f46b3
-121.8672402,37.6653076,4019,BOTTARINI CT,,PLEASANTON,,,94566,946-4631-40,c8994e6f45d297b3
-121.8670366,37.6654888,4007,BOTTARINI CT,,PLEASANTON,,,94566,946-4631-39,6cbf0cec407b764c
-121.8669301,37.6655663,4001,BOTTARINI CT,,PLEASANTON,,,94566,946-4631-38,18ed04014cf24183
-121.866571,37.6659067,3898,STANLEY BL,,PLEASANTON,,,94566,946-4631-37,7c9e4812b9cafc4e
-121.8664917,37.6660297,3892,STANLEY BL,,PLEASANTON,,,94566,946-4631-36,ea4df4f606bc64a3
-121.8664114,37.6661031,3886,STANLEY BL,,PLEASANTON,,,94566,946-4631-35,f0e50193e9678aa2
-121.8663128,37.6662187,3880,STANLEY BL,,PLEASANTON,,,94566,946-4631-34,45be12eb43441be6
-121.8661989,37.6662887,3874,STANLEY BL,,PLEASANTON,,,94566,946-4631-33,50ed277723bbd241
-121.8661255,37.6663768,3868,STANLEY BL,,PLEASANTON,,,94566,946-4631-32,060320f476493db0
-121.8660199,37.66647,3862,STANLEY BL,,PLEASANTON,,,94566,946-4631-31,117c0f479fd209b5
-121.8659398,37.6665549,3856,STANLEY BL,,PLEASANTON,,,94566,946-4631-30,b27a303dae17588c
-121.8658408,37.6666476,3850,STANLEY BL,,PLEASANTON,,,94566,946-4631-29,2bb56fc1fca5fa38
-121.8653965,37.6664878,79,SUNFLOWER HILL WY,,PLEASANTON,,,94566,946-4631-28,34ac40ac68ddf73f
-121.8653979,37.6663968,85,SUNFLOWER HILL WY,,PLEASANTON,,,94566,946-4631-27,4b0ad6ac877f0af8
-121.8653572,37.6663043,91,SUNFLOWER HILL WY,,PLEASANTON,,,94566,946-4631-26,60b5a2600de91b14
-121.8653256,37.666214,97,SUNFLOWER HILL WY,,PLEASANTON,,,94566,946-4631-25,324bd8bf4fd660e6
-121.865537,37.6661305,113,CAVESTRI CI,,PLEASANTON,,,94566,946-4631-24,7904d3c816c7d176
-121.8655686,37.6662208,107,CAVESTRI CI,,PLEASANTON,,,94566,946-4631-23,85d182b743a611ed
-121.8656093,37.6663133,101,CAVESTRI CI,,PLEASANTON,,,94566,946-4631-22,b3058633ecc22fea
-121.8657054,37.6664791,3930,CAVESTRI CI,,PLEASANTON,,,94566,946-4631-21,3700d941afcda289
-121.8658177,37.6663919,3936,CAVESTRI CI,,PLEASANTON,,,94566,946-4631-20,074eea2054a484fd
-121.8658767,37.666334,3942,CAVESTRI CI,,PLEASANTON,,,94566,946-4631-19,9c80072deb585176
-121.8659473,37.6662617,3948,CAVESTRI CI,,PLEASANTON,,,94566,946-4631-18,a7f8c5d9421dd5a2
-121.8657283,37.6660949,3951,CAVESTRI CI,,PLEASANTON,,,94566,946-4631-17,afe7a7a317fda562
-121.8658449,37.6660769,3957,CAVESTRI CI,,PLEASANTON,,,94566,946-4631-16,042fafc1f115268d
-121.8659674,37.6660492,3963,CAVESTRI CI,,PLEASANTON,,,94566,946-4631-15,51a330a6a905db60
-121.8661472,37.66604,3954,CAVESTRI CI,,PLEASANTON,,,94566,946-4631-14,b1e63478d7747696
-121.8662845,37.6658405,3855,NEVADA ST,,PLEASANTON,,,94566,946-4631-13,b2ea912cc90edd99
-121.8661196,37.6658424,3849,NEVADA ST,,PLEASANTON,,,94566,946-4631-12,fbb618893ac6c06f
-121.8659907,37.6658487,3843,NEVADA ST,,PLEASANTON,,,94566,946-4631-11,7239a313e0c0f89a
-121.865844,37.6658599,3837,NEVADA ST,,PLEASANTON,,,94566,946-4631-10,d4f97175c65471ee
-121.8656708,37.6659049,3831,NEVADA ST,,PLEASANTON,,,94566,946-4631-9,5a851820b687a536
-121.8654084,37.665989,3825,NEVADA ST,,PLEASANTON,,,94566,946-4631-8,16b10ee353007fbf
-121.8652624,37.6660431,3819,NEVADA ST,,PLEASANTON,,,94566,946-4631-7,20a7c29d9d60b7ed
-121.8649254,37.6661472,3813,NEVADA ST,,PLEASANTON,,,94566,946-4630-60,bdede8eb0f68c1e1
-121.8647735,37.6662038,3807,NEVADA ST,,PLEASANTON,,,94566,946-4630-59,2d337dd7e08b4a93
-121.8645975,37.6662559,3801,NEVADA ST,,PLEASANTON,,,94566,946-4630-58,a88fb81a6f79c22b
-121.8646515,37.6664221,3803,ROBBY CT,,PLEASANTON,,,94566,946-4630-57,8b76f6e56662e590
-121.864768,37.6663946,3809,ROBBY CT,,PLEASANTON,,,94566,946-4630-56,8cf99da70d7c368d
-121.8648723,37.6663552,3815,ROBBY CT,,PLEASANTON,,,94566,946-4630-55,8a7c2318e4f90b08
-121.8649826,37.6663229,3821,ROBBY CT,,PLEASANTON,,,94566,946-4630-54,b7b73e8726b2d43f
-121.8650833,37.6667414,3818,BRUMM CT,,PLEASANTON,,,94566,946-4630-54,a910e1f74ee0ecb3
-121.8649572,37.6667333,3812,BRUMM CT,,PLEASANTON,,,94566,946-4630-53,c04a6eb2db9bb65e
-121.8648403,37.6667371,3806,BRUMM CT,,PLEASANTON,,,94566,946-4630-52,e79949b4b6b1b222
-121.8647022,37.6667339,3800,BRUMM CT,,PLEASANTON,,,94566,946-4630-51,e401671584af0ab6
-121.8647061,37.6669437,60,SUNFLOWER HILL WY,,PLEASANTON,,,94566,946-4630-50,e5e397173903ee42
-121.8648141,37.6669448,66,SUNFLOWER HILL WY,,PLEASANTON,,,94566,946-4630-49,b5379c30577a66bd
-121.8649221,37.6669459,72,SUNFLOWER HILL WY,,PLEASANTON,,,94566,946-4630-48,63634f8bfb21bd96
-121.8650691,37.666949,78,SUNFLOWER HILL WY,,PLEASANTON,,,94566,946-4630-47,ba6e0a1cee63fbc7
-121.8654405,37.6669068,3844,STANLEY BL,,PLEASANTON,,,94566,946-4630-45,7ed62ac24702b85c
-121.8654242,37.6670448,3838,STANLEY BL,,PLEASANTON,,,94566,946-4630-44,c99e4f45bf872afc
-121.8652685,37.6671756,3832,STANLEY BL,,PLEASANTON,,,94566,946-4630-43,e847c84394e963df
-121.8651324,37.6672621,3826,STANLEY BL,,PLEASANTON,,,94566,946-4630-42,70aa9c531e66d53e
-121.8650324,37.6673243,3820,STANLEY BL,,PLEASANTON,,,94566,946-4630-41,0bfc1a148ed49ba1
-121.8649274,37.6674016,3814,STANLEY BL,,PLEASANTON,,,94566,946-4630-40,8b480dcf48e4cd59
-121.8646434,37.6672877,33,IRBY RANCH DR,,PLEASANTON,,,94566,946-4630-38,4d17dc64cfe79faf
-121.8647806,37.6675115,3760,STANLEY BL,,PLEASANTON,,,94566,946-4630-39,2fb3676f4c10f3ef
-121.8648177,37.667471,3808,STANLEY BL,,PLEASANTON,,,94566,946-4630-39,19c4736587c715bf
-121.8642973,37.667225,38,IRBY RANCH DR,,PLEASANTON,,,94566,946-4630-37,e44fc74ccbbc3f93
-121.8643199,37.6673105,32,IRBY RANCH DR,,PLEASANTON,,,94566,946-4630-36,634c6d3b8f41feae
-121.8643307,37.6674106,26,IRBY RANCH DR,,PLEASANTON,,,94566,946-4630-35,2b1e26df10969640
-121.8643834,37.6675006,20,IRBY RANCH DR,,PLEASANTON,,,94566,946-4630-34,a37c8f766244c315
-121.8641401,37.667644,21,HUESTED ST,,PLEASANTON,,,94566,946-4630-33,44a0469559771c3c
-121.8640908,37.6675755,27,HUESTED ST,,PLEASANTON,,,94566,946-4630-32,6ae2143fc8bfaded
-121.8640714,37.667497,33,HUESTED ST,,PLEASANTON,,,94566,946-4630-31,f64f05e4122f2902
-121.8640399,37.6674163,39,HUESTED ST,,PLEASANTON,,,94566,946-4630-30,9e563e89cc6a1b50
-121.8640413,37.6673305,45,HUESTED ST,,PLEASANTON,,,94566,946-4630-29,5ef965dbaa412d66
-121.8640429,37.6672518,51,HUESTED ST,,PLEASANTON,,,94566,946-4630-28,0b1667682e252d7e
-121.8640322,37.6671589,57,HUESTED ST,,PLEASANTON,,,94566,946-4630-27,2907bdf321d510f1
-121.8640967,37.6679339,3784,STANLEY BL,,PLEASANTON,,,94566,946-4630-14,a04dd878fbd3fcab
-121.8639851,37.6679954,3778,STANLEY BL,,PLEASANTON,,,94566,946-4630-13,34c0bddbe58c2476
-121.8638837,37.6680599,3772,STANLEY BL,,PLEASANTON,,,94566,946-4630-12,03adce150d97c259
-121.8637865,37.6681209,3766,STANLEY BL,,PLEASANTON,,,94566,946-4630-11,abb5e4c9645becd8
-121.8637879,37.6670854,52,HUESTED ST,,PLEASANTON,,,94566,946-4630-26,97fd20833b4e2cb8
-121.8637695,37.6672263,46,HUESTED ST,,PLEASANTON,,,94566,946-4630-25,61f4068b6025a21a
-121.8637807,37.6673478,40,HUESTED ST,,PLEASANTON,,,94566,946-4630-24,da43f49fa3425d73
-121.8637914,37.6674407,34,HUESTED ST,,PLEASANTON,,,94566,946-4630-23,c085ce64364ab9b7
-121.8638051,37.6675311,28,HUESTED ST,,PLEASANTON,,,94566,946-4630-22,ded2e8b5a192cd9b
-121.8638369,37.6676309,22,HUESTED ST,,PLEASANTON,,,94566,946-4630-21,f747e217dd7b190b
-121.8639062,37.6677656,3792,MCKINNEY LN,,PLEASANTON,,,94566,946-4630-20,9a09a1b025520ad5
-121.8638334,37.6678041,3786,MCKINNEY LN,,PLEASANTON,,,94566,946-4630-19,6f6cb1d493806e53
-121.8637518,37.6678454,3780,MCKINNEY LN,,PLEASANTON,,,94566,946-4630-18,6d3b39da3ccd8252
-121.8645021,37.6676732,3802,STANLEY BL,,PLEASANTON,,,94566,946-4630-17,077d945fa12631f2
-121.864395,37.6677391,3796,STANLEY BL,,PLEASANTON,,,94566,946-4630-16,82b1e7b1992e6aef
-121.8642844,37.6677937,3790,STANLEY BL,,PLEASANTON,,,94566,946-4630-15,79b0f8ce79309659
-121.8649939,37.6671026,3780,STANLEY BL,,PLEASANTON,,,94566,946-4630-7,add5ff9aaf530177
-121.8656574,37.6668333,3878,STANLEY BL,,PLEASANTON,,,94566,946-4630-4,ab845ac2f467071e
-121.8639541,37.6664559,3701,NEVADA ST,,PLEASANTON,,,94566,946-4630-2,b1fd730b443a2ecb
-122.2376225,37.7853467,2141,E 15TH ST,,OAKLAND,,,94606,20-150-21,bfad668f5894a2b6
-122.236831,37.8555108,190,ALVARADO RD,,BERKELEY,,,94705,64-4229-19,342caa245474ec91
-122.0402983,37.5216046,37569,ENTERPRISE CT,STE D,NEWARK,,,94560,92-251-10-2,33225db95e3064d3
-122.0402983,37.5216046,37569,ENTERPRISE CT,STE E,NEWARK,,,94560,92-251-10-2,f7ede26a270992ff
-122.0402983,37.5216046,37569,ENTERPRISE CT,STE F,NEWARK,,,94560,92-251-10-2,3fdb2282684d3506
-122.0402983,37.5216046,37569,ENTERPRISE CT,STE G,NEWARK,,,94560,92-251-10-2,c00bf55eec4d93b6
-122.0402983,37.5216046,37569,ENTERPRISE CT,STE A,NEWARK,,,94560,92-251-10-2,a87bc889c55b039b
-122.0402983,37.5216046,37569,ENTERPRISE CT,STE B,NEWARK,,,94560,92-251-10-2,08dd6bd3b0b3fcfc
-122.0402983,37.5216046,37569,ENTERPRISE CT,STE C,NEWARK,,,94560,92-251-10-2,e6292860dca0a326
-122.0402983,37.5216046,37569,ENTERPRISE CT,,NEWARK,,,94560,92-251-10-2,a5bf0b69c0a93d89
-122.0407074,37.521667,37557,ENTERPRISE CT,STE A,NEWARK,,,94560,92-251-8-1,0a18865c2950a9da
-122.0407074,37.521667,37557,ENTERPRISE CT,STE B,NEWARK,,,94560,92-251-8-1,f4acf939274501c6
-122.0407074,37.521667,37557,ENTERPRISE CT,STE C,NEWARK,,,94560,92-251-8-1,d35246b68f6b9055
-122.0407074,37.521667,37557,ENTERPRISE CT,STE D,NEWARK,,,94560,92-251-8-1,8120c7b9a2fae26c
-122.0407074,37.521667,37557,ENTERPRISE CT,STE E,NEWARK,,,94560,92-251-8-1,d91a2bfab26d39ef
-122.0407074,37.521667,37557,ENTERPRISE CT,STE F,NEWARK,,,94560,92-251-8-1,bbd363810e1af60e
-122.0407074,37.521667,37557,ENTERPRISE CT,STE G,NEWARK,,,94560,92-251-8-1,5da4d0b144a8a5a7
-122.0407074,37.521667,37557,ENTERPRISE CT,STE H,NEWARK,,,94560,92-251-8-1,55af9c9382790631
-122.0407074,37.521667,37557,ENTERPRISE CT,,NEWARK,,,94560,92-251-8-1,f545d3417b6b1e27
-122.2445225,37.8464088,6020,OCEAN VIEW DR,,OAKLAND,,,94618,48A-7110-40,e95e8f1c5ce10b26
-122.2063491,37.8379696,6281,ASPINWALL RD,,OAKLAND,,,94611,48F-7381-35-2,939cfaaa92f12bb5
-122.0486619,37.6979936,4918,JENSEN RD,,CASTRO VALLEY,,,94552,85-5450-54,437860c5ac383c07
-122.04845,37.6980478,4924,JENSEN RD,,CASTRO VALLEY,,,94552,85-5450-53,39862e5fd1d70d37
-122.0485544,37.698022,4922,JENSEN RD,,CASTRO VALLEY,,,94552,85-5450-53,fe17ee7e6dafb0ec
-122.0480675,37.6979257,4932,JENSEN RD,,CASTRO VALLEY,,,94552,85-5450-52,b4f7e4eead612d89
-122.0481065,37.6980185,4930,JENSEN RD,,CASTRO VALLEY,,,94552,85-5450-52,09c9f3e518b8acee
-122.1110275,37.6793953,145,MEDFORD AV,A,HAYWARD,,,94541,429-10-95,868c96f554eff89b
-122.1109957,37.6796274,147,MEDFORD AV,,HAYWARD,,,94541,429-10-94,c72dbdcd2a0c98d7
-122.1112109,37.6798406,145,MEDFORD AV,,HAYWARD,,,94541,429-10-93,736c735141e13686
-121.8621267,37.6764401,3420,CORNERSTONE CT,,PLEASANTON,,,94588,946-4629-2-1,3d60b2add22a736a
-121.8618534,37.676213,3410,CORNERSTONE CT,,PLEASANTON,,,94588,946-4629-2-1,bb86f0d6e721404c
-121.8627795,37.6761677,3430,CORNERSTONE CT,,PLEASANTON,,,94588,946-4629-8-2,179320166842e041
-122.2908508,37.8549498,2817,EIGHTH ST,,BERKELEY,,,94710,53-1659-34,0a427caff4d842c8
-122.0993694,37.6643478,22835,MONO ST,,HAYWARD,,,94541,431-88-27-4,bc639427149b1ba5
-122.0993741,37.6644512,22787,AMADOR ST,,HAYWARD,,,94541,431-88-26-5,e644c19b840be6e3
-122.0994254,37.664668,22727,MONO ST,,HAYWARD,,,94541,431-88-26-5,09cb7b9bde560db8
-122.0995078,37.6646281,22739,MONO ST,,HAYWARD,,,94541,431-88-26-5,cb708200c6208ebf
-122.0994126,37.6645798,22741,MONO ST,,HAYWARD,,,94541,431-88-26-5,c9272c7bcfda5105
-122.0994343,37.6646775,22733,MONO ST,,HAYWARD,,,94541,431-88-26-5,234571a194f27ed1
-122.0994646,37.6646087,22743,MONO ST,,HAYWARD,,,94541,431-88-26-5,5c5d599b92f122ca
-122.0995039,37.664671,22735,MONO ST,,HAYWARD,,,94541,431-88-26-5,24cbddd9076df23a
-122.0994801,37.6647011,22729,AMADOR ST,,HAYWARD,,,94541,431-88-26-5,01ef126ca5dafb59
-122.0994673,37.6645749,22745,AMADOR ST,,HAYWARD,,,94541,431-88-26-5,36b3ad528bf9c3ab
-122.0993605,37.6645104,22785,AMADOR ST,,HAYWARD,,,94541,431-88-26-5,948a53203677c82c
-122.0994598,37.6645954,22737,AMADOR ST,,HAYWARD,,,94541,431-88-26-5,e65d1e34a78c2db7
-122.2678599,37.8140223,490,24TH ST,,OAKLAND,,,94612,8-674-42,709a6ee2612637b3
-122.2318213,37.7534478,3290,MADISON ST,,ALAMEDA,,,94501,69-28-135-3,21e9ab3196de75d8
-121.8507999,37.7432091,7291,LEMBERT HILLS DR,,DUBLIN,,,94568,985-130-84,1b5847b8e65f28cb
-121.8508065,37.7430755,7287,LEMBERT HILLS DR,,DUBLIN,,,94568,985-130-83,b3c3b490488177bc
-121.8508385,37.7429343,7283,LEMBERT HILLS DR,,DUBLIN,,,94568,985-130-82,3739c1aed6b7b5c5
-121.8508794,37.7427933,7275,LEMBERT HILLS DR,,DUBLIN,,,94568,985-130-81,ce505e3eedc46997
-121.8509114,37.7426522,7267,LEMBERT HILLS DR,,DUBLIN,,,94568,985-130-80,fa7c7b79a020dd14
-121.8509343,37.7425167,7259,LEMBERT HILLS DR,,DUBLIN,,,94568,985-130-79,398db6d431f337bd
-121.8509809,37.7423737,7251,LEMBERT HILLS DR,,DUBLIN,,,94568,985-130-78,424ae951ee3afb23
-121.85105,37.7422402,7243,LEMBERT HILLS DR,,DUBLIN,,,94568,985-130-77,65a857f047f2ae46
-121.8510974,37.7421065,7235,LEMBERT HILLS DR,,DUBLIN,,,94568,985-130-76,3fd93458e0578146
-121.8511606,37.7419804,7227,LEMBERT HILLS DR,,DUBLIN,,,94568,985-130-75,6e11b2ea76361d99
-121.8512246,37.7418274,7219,LEMBERT HILLS DR,,DUBLIN,,,94568,985-130-74,57471d9496e4d408
-121.8512841,37.7417107,7213,LEMBERT HILLS DR,,DUBLIN,,,94568,985-130-73,3bbadac2ad2b95e1
-121.8513288,37.7415909,7207,LEMBERT HILLS DR,,DUBLIN,,,94568,985-130-72,8313468908c53fba
-121.8514002,37.7414545,7203,LEMBERT HILLS DR,,DUBLIN,,,94568,985-130-71,8eeda15eff2941bf
-121.8514763,37.7413426,7195,LEMBERT HILLS DR,,DUBLIN,,,94568,985-130-70,9b94d46e22d09485
-121.8515374,37.7412015,7187,LEMBERT HILLS DR,,DUBLIN,,,94568,985-130-69,7840b5c1a2401f4f
-121.851597,37.7410848,7179,LEMBERT HILLS DR,,DUBLIN,,,94568,985-130-68,cd0ab8e460f287c2
-121.8516416,37.740965,7171,LEMBERT HILLS DR,,DUBLIN,,,94568,985-130-67,40c9ce335bd043e0
-121.851713,37.7408286,7163,LEMBERT HILLS DR,,DUBLIN,,,94568,985-130-66,d3b7b85054dc2242
-121.8538498,37.7415502,2799,LAHONTAN WY,,DUBLIN,,,94568,985-130-56,bb0c1abc517642b6
-121.8536798,37.7416118,2793,LAHONTAN WY,,DUBLIN,,,94568,985-130-55,a566ff090ac3d32d
-121.8534825,37.7416593,2785,LAHONTAN WY,,DUBLIN,,,94568,985-130-54,a76f6267987ef001
-121.8532942,37.7417068,2777,LAHONTAN WY,,DUBLIN,,,94568,985-130-53,f69f98ec1f41472f
-121.8531024,37.7417257,2769,LAHONTAN WY,,DUBLIN,,,94568,985-130-52,6dd80d623bf35925
-121.8529079,37.7417613,2763,LAHONTAN WY,,DUBLIN,,,94568,985-130-51,cb6db92bc68540f0
-121.852722,37.7417754,2759,LAHONTAN WY,,DUBLIN,,,94568,985-130-50,c2466acdf5f7858b
-121.8525327,37.7417656,2753,LAHONTAN WY,,DUBLIN,,,94568,985-130-49,5515f0373f92b5b8
-121.8523401,37.741744,2745,LAHONTAN WY,,DUBLIN,,,94568,985-130-48,efcc0fa85f726423
-121.8521415,37.74172,2737,LAHONTAN WY,,DUBLIN,,,94568,985-130-47,1147c894c2748d5a
-121.8518861,37.7415968,7202,LEMBERT HILLS DR,,DUBLIN,,,94568,985-130-46,8971f21e591f2cf0
-121.8518147,37.7417332,7206,LEMBERT HILLS DR,,DUBLIN,,,94568,985-130-45,ec5ee99f3659cd77
-121.85177,37.7418529,7210,LEMBERT HILLS DR,,DUBLIN,,,94568,985-130-44,002e79bc93f47199
-121.8517105,37.7419696,7218,LEMBERT HILLS DR,,DUBLIN,,,94568,985-130-43,1c3022f51cb03ca1
-121.8516466,37.7421227,7226,LEMBERT HILLS DR,,DUBLIN,,,94568,985-130-42,46afb15d9e5f833e
-121.8515834,37.7422487,7232,LEMBERT HILLS DR,,DUBLIN,,,94568,985-130-41,4c9b9f43e8f80798
-121.851536,37.7423825,7242,LEMBERT HILLS DR,,DUBLIN,,,94568,985-130-40,acc11b40bc32be69
-121.8514669,37.7425159,7250,LEMBERT HILLS DR,,DUBLIN,,,94568,985-130-39,86429edef5600166
-121.8514203,37.742659,7262,LEMBERT HILLS DR,,DUBLIN,,,94568,985-130-38,47bfdd774921915d
-121.8513974,37.7427944,7270,LEMBERT HILLS DR,,DUBLIN,,,94568,985-130-37,2a86a3bc6f5ff2e0
-121.8513654,37.7429356,7282,LEMBERT HILLS DR,,DUBLIN,,,94568,985-130-36,3477fbf511d090bc
-121.8513485,37.7430763,7290,LEMBERT HILLS DR,,DUBLIN,,,94568,985-130-35,d5a80643a56dca77
-121.8513165,37.7432175,7298,LEMBERT HILLS DR,,DUBLIN,,,94568,985-130-34,06fb7f90d3a751a1
-121.8517367,37.7432339,2677,MOUNT DANA DR,,DUBLIN,,,94568,985-130-33,3ab8cdf948081913
-121.851791,37.7430831,2673,MOUNT DANA DR,,DUBLIN,,,94568,985-130-32,a461589745c32b47
-121.8518248,37.7429611,2669,MOUNT DANA DR,,DUBLIN,,,94568,985-130-31,b6be8b989a93ce1b
-121.8518646,37.742839,2665,MOUNT DANA DR,,DUBLIN,,,94568,985-130-30,d85e93baf2157779
-121.8519163,37.7427097,2639,MOUNT DANA CT,,DUBLIN,,,94568,985-130-29,b040f3013732705e
-121.8519501,37.7425877,2635,MOUNT DANA CT,,DUBLIN,,,94568,985-130-28,3efc36485d2a13a8
-121.8519899,37.7424657,2631,MOUNT DANA CT,,DUBLIN,,,94568,985-130-27,53ae607ebcb8ba41
-121.8520388,37.7423459,2627,MOUNT DANA CT,,DUBLIN,,,94568,985-130-26,9183013602d7c73a
-121.8520726,37.7422239,2623,MOUNT DANA CT,,DUBLIN,,,94568,985-130-25,51d8c8a012e7ac3b
-121.8521124,37.7421018,2619,MOUNT DANA CT,,DUBLIN,,,94568,985-130-24,0ce0d298431b89eb
-121.852155,37.7419678,2615,MOUNT DANA CT,,DUBLIN,,,94568,985-130-23,ef35808d147cf823
-121.8527957,37.742032,2616,MOUNT DANA CT,,DUBLIN,,,94568,985-130-22,669a1b0a1c4899fc
-121.8527568,37.7422017,2620,MOUNT DANA CT,,DUBLIN,,,94568,985-130-21,afa2e266b73f16fc
-121.8525433,37.742352,2626,MOUNT DANA CT,,DUBLIN,,,94568,985-130-20,b465951c770a2ee2
-121.8524827,37.7424838,2630,MOUNT DANA CT,,DUBLIN,,,94568,985-130-19,5f67f2a1dec58af4
-121.8524429,37.7426083,2636,MOUNT DANA CT,,DUBLIN,,,94568,985-130-18,ec6ffef1dad8ec30
-121.8523827,37.7427663,2638,MOUNT DANA CT,,DUBLIN,,,94568,985-130-17,97a80354a8b4d7a6
-121.852815,37.7425992,2782,CATHEDRAL ROCK LN,,DUBLIN,,,94568,985-130-16,c65a7938b343abfd
-121.8530029,37.742485,2796,CATHEDRAL ROCK LN,,DUBLIN,,,94568,985-130-15,99ab6b6a1fd10d6b
-121.8531439,37.7424203,2802,CATHEDRAL ROCK LN,,DUBLIN,,,94568,985-130-14,e79f18934fabfdc5
-121.8532779,37.7423622,2808,CATHEDRAL ROCK LN,,DUBLIN,,,94568,985-130-13,f5794f4524e1e98b
-121.8534194,37.7423086,2816,CATHEDRAL ROCK LN,,DUBLIN,,,94568,985-130-12,7c25e711d0ef345c
-121.8535605,37.7422496,2822,CATHEDRAL ROCK LN,,DUBLIN,,,94568,985-130-11,349a8800df68d07e
-121.8536945,37.7421914,2838,CATHEDRAL ROCK LN,,DUBLIN,,,94568,985-130-10,ebd142ac15fed4ec
-121.8538325,37.7421422,2850,CATHEDRAL ROCK LN,,DUBLIN,,,94568,985-130-9,5c7c907c300122f4
-121.8539735,37.7420775,2858,CATHEDRAL ROCK LN,,DUBLIN,,,94568,985-130-8,3506c244e2260d58
-121.85412,37.7420092,2866,CATHEDRAL ROCK LN,,DUBLIN,,,94568,985-130-7,4aa7351023a304a4
-121.8542504,37.7419171,2882,CATHEDRAL ROCK LN,,DUBLIN,,,94568,985-130-6,cf5fc7a9b3dfe6ec
-121.8536602,37.7402494,2812,DELAMAR DR,,DUBLIN,,,94568,985-126-151,52a30abd39991681
-121.8538357,37.7401592,2826,DELAMAR DR,,DUBLIN,,,94568,985-126-150,e68cd28687e83521
-121.8539904,37.7400787,2830,DELAMAR DR,,DUBLIN,,,94568,985-126-149,27df2dd6d906c1f2
-121.8541571,37.7400029,2838,DELAMAR DR,,DUBLIN,,,94568,985-126-148,c71956593f92aa3f
-121.8543333,37.7399532,2850,DELAMAR DR,,DUBLIN,,,94568,985-126-147,705c5d65a69ba355
-121.8545126,37.7399058,2858,DELAMAR DR,,DUBLIN,,,94568,985-126-146,e3e85c1e389f9343
-121.8547012,37.739875,2866,DELAMAR DR,,DUBLIN,,,94568,985-126-145,a8a5102c2c97401f
-121.8548878,37.7398681,2872,DELAMAR DR,,DUBLIN,,,94568,985-126-144,9cfd0ba0f8c8d918
-121.8550678,37.7398584,2880,DELAMAR DR,,DUBLIN,,,94568,985-126-143,8781b08bcf7882b5
-121.8552718,37.7398504,2888,DELAMAR DR,,DUBLIN,,,94568,985-126-142,a1b389666d6f17b1
-121.8554659,37.7398252,2892,DELAMAR DR,,DUBLIN,,,94568,985-126-141,1f3b69e5a6631621
-121.8556221,37.7397963,2906,DELAMAR DR,,DUBLIN,,,94568,985-126-140,95ddf0d35e53b934
-121.8557966,37.7397532,2912,DELAMAR DR,,DUBLIN,,,94568,985-126-139,8382e16616045c83
-121.8559805,37.739692,2920,DELAMAR DR,,DUBLIN,,,94568,985-126-138,824e63165603730a
-121.8561442,37.7396186,2938,DELAMAR DR,,DUBLIN,,,94568,985-126-137,e4407d33eec91d5b
-121.8563168,37.7395332,2952,DELAMAR DR,,DUBLIN,,,94568,985-126-136,87748d2e1ef1b80c
-121.8564711,37.7394312,2962,DELAMAR DR,,DUBLIN,,,94568,985-126-135,c742583aacc1a71b
-121.8566042,37.7393224,2970,DELAMAR DR,,DUBLIN,,,94568,985-126-134,10c01ad57136611b
-121.8567401,37.7391993,2978,DELAMAR DR,,DUBLIN,,,94568,985-126-133,b19f6721d254f5c4
-121.856867,37.739081,2986,DELAMAR DR,,DUBLIN,,,94568,985-126-132,964a003abd7ded0c
-121.8569881,37.7389723,2992,DELAMAR DR,,DUBLIN,,,94568,985-126-131,a946586aac414a67
-121.8571182,37.7388635,3002,DELAMAR DR,,DUBLIN,,,94568,985-126-130,dbb18395e06bfd17
-121.8572483,37.7387547,3010,DELAMAR DR,,DUBLIN,,,94568,985-126-129,5fa21dee26601f02
-121.8573872,37.7386315,3018,DELAMAR DR,,DUBLIN,,,94568,985-126-128,d3ca2ea5421dc0df
-121.8570817,37.7394933,2977,DELAMAR DR,,DUBLIN,,,94568,985-126-127,3eacd014280005c3
-121.8569428,37.7396165,2969,DELAMAR DR,,DUBLIN,,,94568,985-126-126,7abf8165be546202
-121.8568097,37.7397278,2961,DELAMAR DR,,DUBLIN,,,94568,985-126-125,a2e2558cafcdc973
-121.8566676,37.7398367,2953,DELAMAR DR,,DUBLIN,,,94568,985-126-124,decad90017ccee8d
-121.8561007,37.7400721,2921,DELAMAR DR,,DUBLIN,,,94568,985-126-123,6dbf73bb14ade5e5
-121.8559169,37.7401333,2913,DELAMAR DR,,DUBLIN,,,94568,985-126-122,22074803b912020e
-121.8557304,37.7401813,2905,DELAMAR DR,,DUBLIN,,,94568,985-126-121,bf8f24e833d63dc6
-121.8555293,37.7402179,2897,DELAMAR DR,,DUBLIN,,,94568,985-126-120,e32362f57ae54f6f
-121.8553352,37.740243,2889,DELAMAR DR,,DUBLIN,,,94568,985-126-119,a68be8a3521b230d
-121.8551312,37.7402511,2881,DELAMAR DR,,DUBLIN,,,94568,985-126-118,6816585bce9afb2d
-121.8549511,37.7402513,2873,DELAMAR DR,,DUBLIN,,,94568,985-126-117,7b49fa5067f4dcb7
-121.8547614,37.7402534,2865,DELAMAR DR,,DUBLIN,,,94568,985-126-116,9f3e9114411855ba
-121.854573,37.7402938,2851,DELAMAR DR,,DUBLIN,,,94568,985-126-115,ed2a5d21b176aaeb
-121.8543968,37.7403458,2835,DELAMAR DR,,DUBLIN,,,94568,985-126-114,7b51dea518238e7d
-121.8542238,37.7404098,2831,DELAMAR DR,,DUBLIN,,,94568,985-126-113,6682f87417ad8756
-121.8540571,37.7404857,2823,DELAMAR DR,,DUBLIN,,,94568,985-126-112,0406f91f6ba91a2d
-121.8539025,37.7405733,2815,DELAMAR DR,,DUBLIN,,,94568,985-126-111,65e774f71c05438b
-121.853727,37.7406635,2803,DELAMAR DR,,DUBLIN,,,94568,985-126-110,9f7016a100fbbeba
-121.8519947,37.7412401,2722,LAHONTAN WY,,DUBLIN,,,94568,985-130-65,805ff0a0b65e61ca
-121.8521939,37.7412998,2736,LAHONTAN WY,,DUBLIN,,,94568,985-130-64,79591d4ef5a71054
-121.8523925,37.7413238,2748,LAHONTAN WY,,DUBLIN,,,94568,985-130-63,6a412a7dcc281be8
-121.8525851,37.7413454,2752,LAHONTAN WY,,DUBLIN,,,94568,985-130-62,0bf265a306e95441
-121.8527923,37.7413525,2762,LAHONTAN WY,,DUBLIN,,,94568,985-130-61,01837039c3f7be58
-121.8529902,37.741336,2770,LAHONTAN WY,,DUBLIN,,,94568,985-130-60,44a182b76007c2f5
-121.8531967,37.7413002,2788,LAHONTAN WY,,DUBLIN,,,94568,985-130-59,29b25f451e9c926e
-121.853385,37.7412551,2790,LAHONTAN WY,,DUBLIN,,,94568,985-130-58,c8dcbbc1d2df2238
-121.85357,37.741191,2798,LAHONTAN WY,,DUBLIN,,,94568,985-130-57,be6be98f559c4726
-121.9684598,37.4944809,5493,CUSHING PW,1,FREMONT,,,94538,525-1691-11,f068fa9eaae2e893
-122.2861574,37.8260969,3428,HELEN ST,,OAKLAND,,,94608,7-609-47,fb4f196acbac42ce
-121.7764336,37.678258,1541,SECOND ST,,LIVERMORE,,,94550,97-24-12,59e026fdd3b89e30
-121.7763609,37.6782817,1545,SECOND ST,,LIVERMORE,,,94550,97-24-11,bbaef16d218e2197
-121.7762701,37.6783075,1549,SECOND ST,,LIVERMORE,,,94550,97-24-10,643202dbf2901111
-121.7761997,37.6783311,1553,SECOND ST,,LIVERMORE,,,94550,97-24-9,32c658cffca905d4
-121.7761149,37.6783559,1557,SECOND ST,,LIVERMORE,,,94550,97-24-8,862ed4c1106543c2
-121.7760421,37.6783739,1561,SECOND ST,,LIVERMORE,,,94550,97-24-7,663b04201b4f43e4
-121.7758791,37.6783472,235,S P ST,,LIVERMORE,,,94550,97-24-6,6028a758c81fb98d
-121.775949,37.678474,1565,SECOND ST,,LIVERMORE,,,94550,97-24-5,77cb6b88c8ac714b
-122.2958767,37.8758378,1016,JONES ST,,BERKELEY,,,94710,59-2311-29,bca78b4521b490a3
-122.0820991,37.7187763,4659,PROCTOR RD,,CASTRO VALLEY,,,94546,84D-1403-3-8,9f1d52cb0eb2770b
-122.0824132,37.718804,4651,PROCTOR RD,,CASTRO VALLEY,,,94546,84D-1403-1-7,4bf4a444c77ed2de
-122.2661371,37.8277947,3883,TURQUOISE WY,,OAKLAND,,,94609,12-1025-14,b4d5758766cfc155
-121.9001274,37.7086115,5789,NUGGET WY,,DUBLIN,,,94568,986-59-55,fcd8f3757187c190
-121.9003339,37.7086147,5807,NUGGET WY,,DUBLIN,,,94568,986-59-54,b2173fea61fc412e
-121.9005536,37.7086135,5821,NUGGET WY,,DUBLIN,,,94568,986-59-53,6aed5cf71794677a
-121.9007698,37.7086132,5837,NUGGET WY,,DUBLIN,,,94568,986-59-52,f4d23973ea27c8d6
-121.9009823,37.7086129,5855,NUGGET WY,,DUBLIN,,,94568,986-59-51,ffdfcd80275bdb8c
-121.9012203,37.7086136,5869,NUGGET WY,,DUBLIN,,,94568,986-59-50,0573f43ddbbc90f8
-121.901216,37.7087865,5801,BEECHWOOD LP,,DUBLIN,,,94568,986-59-49,d7c825026ee89067
-121.9009781,37.7087858,5809,BEECHWOOD LP,,DUBLIN,,,94568,986-59-48,f677f27517a3fa98
-121.9007655,37.7087861,5815,BEECHWOOD LP,,DUBLIN,,,94568,986-59-47,f6233eb76a7d6eb6
-121.9005494,37.7087865,5823,BEECHWOOD LP,,DUBLIN,,,94568,986-59-46,af36ff4792ff2077
-121.9003297,37.7087876,5829,BEECHWOOD LP,,DUBLIN,,,94568,986-59-45,a0b471b1b76e8bfd
-121.9001232,37.7087844,5835,BEECHWOOD LP,,DUBLIN,,,94568,986-59-44,3c3de29e239ea187
-121.9005146,37.7090453,5826,BEECHWOOD LP,,DUBLIN,,,94568,986-59-43,11e767b585662f4c
-121.9007308,37.709045,5812,BEECHWOOD LP,,DUBLIN,,,94568,986-59-42,8908af4c71577664
-121.9009433,37.7090447,5806,BEECHWOOD LP,,DUBLIN,,,94568,986-59-41,e1fe6229e29e0d81
-121.9011813,37.7090453,5800,BEECHWOOD LP,,DUBLIN,,,94568,986-59-40,4ef47e952c02271b
-121.9012594,37.7091333,5941,ROSEWOOD RD,,DUBLIN,,,94568,986-59-40,6edb8e2cd0647060
-121.9011763,37.7092256,5892,BEECHWOOD LP,,DUBLIN,,,94568,986-59-39,1fdd19b7d85dd7cf
-121.9009383,37.709225,5882,BEECHWOOD LP,,DUBLIN,,,94568,986-59-38,75141f915b37242e
-121.9007258,37.7092253,5876,BEECHWOOD LP,,DUBLIN,,,94568,986-59-37,3c89735c4aab1f92
-121.9005096,37.7092256,5868,BEECHWOOD LP,,DUBLIN,,,94568,986-59-36,3e7f23615f5c9bee
-121.9001123,37.7090467,5847,BEECHWOOD LP,,DUBLIN,,,94568,986-59-35,d4493f8673c347da
-121.9001066,37.7092213,5853,BEECHWOOD LP,,DUBLIN,,,94568,986-59-34,a566c928260586c4
-121.9001139,37.7094878,5859,BEECHWOOD LP,,DUBLIN,,,94568,986-59-33,773fc6fe222a0bdd
-121.9003204,37.7094911,5865,BEECHWOOD LP,,DUBLIN,,,94568,986-59-32,3741db5d402979ac
-121.9005401,37.7094899,5873,BEECHWOOD LP,,DUBLIN,,,94568,986-59-31,e7e34ba222f0e846
-121.9007563,37.7094896,5879,BEECHWOOD LP,,DUBLIN,,,94568,986-59-30,88f302f8083f9a85
-121.9009688,37.7094893,5885,BEECHWOOD LP,,DUBLIN,,,94568,986-59-29,f18a3d3d03b9f2d8
-121.9012068,37.7094899,5891,BEECHWOOD LP,,DUBLIN,,,94568,986-59-28,43e9e0d634e6f496
-121.9012025,37.7096628,5786,JUNIPER WY,,DUBLIN,,,94568,986-59-27,8143185f183fa6cb
-121.9009646,37.7096622,5778,JUNIPER WY,,DUBLIN,,,94568,986-59-26,2325fb9358c6ec08
-121.900752,37.7096625,5772,JUNIPER WY,,DUBLIN,,,94568,986-59-25,26ea7a623e8f6682
-121.9005359,37.7096628,5766,JUNIPER WY,,DUBLIN,,,94568,986-59-24,0d68782a1c57c8c3
-121.9003162,37.709664,5758,JUNIPER WY,,DUBLIN,,,94568,986-59-23,3ff0512023b866f1
-121.9001097,37.7096607,5750,JUNIPER WY,,DUBLIN,,,94568,986-59-22,4f18ef2a25f599b1
-121.9000997,37.7099353,5751,JUNIPER WY,,DUBLIN,,,94568,986-59-21,39d8dbc50f0ed819
-121.900106,37.7101431,5755,JUNIPER WY,,DUBLIN,,,94568,986-59-20,e6ae9016d753cee4
-121.900656,37.7099246,5767,JUNIPER WY,,DUBLIN,,,94568,986-59-19,cb6cb5cd47fa845f
-121.9004364,37.7099258,5763,JUNIPER WY,,DUBLIN,,,94568,986-59-18,4e3802c9d5fd6282
-121.9004207,37.7101148,5759,JUNIPER WY,,DUBLIN,,,94568,986-59-17,6956b1ce3011a41b
-121.9015698,37.7096054,5986,ROSEWOOD RD,,DUBLIN,,,94568,986-59-16,c396e3d3ddc97446
-121.9015728,37.7094222,5970,ROSEWOOD RD,,DUBLIN,,,94568,986-59-15,3418735f78abde87
-121.9015762,37.7092216,5952,ROSEWOOD RD,,DUBLIN,,,94568,986-59-14,4610f762fc310bba
-121.9015794,37.7090228,5938,ROSEWOOD RD,,DUBLIN,,,94568,986-59-13,d1918c9884b8a23a
-121.9015825,37.708837,5922,ROSEWOOD RD,,DUBLIN,,,94568,986-59-12,7bfd39e4c0f85671
-121.9015857,37.708641,5906,ROSEWOOD RD,,DUBLIN,,,94568,986-59-11,74926e226c7bd9f3
-121.901546,37.7097132,5994,ROSEWOOD RD,,DUBLIN,,,94568,986-59-6,cdf3c0cb183c3e90
-122.2718874,37.8330525,860,43RD ST,,OAKLAND,,,94608,13-1089-41,391a8ad6f8113deb
-122.2724762,37.8373243,883,53RD ST,,OAKLAND,,,94608,14-1194-33,d0f846acb8c14ee7
-121.9754736,37.7075353,7931,RIDGELINE PL,,DUBLIN,,,94568,941-2834-34-1,fcb8b16fb883e8eb
-122.1438596,37.6536207,2534,BARRINGTON CT,,HAYWARD,,,94545,438-30-20,b240771b66542340
-122.1422228,37.6529667,2663,W WINTON AV,,HAYWARD,,,94545,438-30-19,6b20716133e05ad4
-122.1408077,37.6532706,2655,W WINTON AV,,HAYWARD,,,94545,438-30-19,facf05cd24e21d7c
-122.1436256,37.6506359,2893,W WINTON AV,,HAYWARD,,,94545,438-30-19,19e5787f9e9a1d28
-122.1429835,37.6508026,2851,W WINTON AV,,HAYWARD,,,94545,438-30-19,8e22bb3907aa7f37
-122.1425709,37.6510206,2725,W WINTON AV,,HAYWARD,,,94545,438-30-19,fa5169c5c0e3aa9a
-122.142168,37.6512634,2711,W WINTON AV,,HAYWARD,,,94545,438-30-19,8b1eb0f949060f4f
-122.1416951,37.6514615,2707,W WINTON AV,,HAYWARD,,,94545,438-30-19,7aac55cfd1d78c7a
-122.1434357,37.650461,2885,W WINTON AV,,HAYWARD,,,94545,438-30-19,b7d44baf4f11cf20
-122.1430277,37.6506514,2847,W WINTON AV,,HAYWARD,,,94545,438-30-19,0a838568c9a9a1d2
-122.1428534,37.650723,2849,W WINTON AV,,HAYWARD,,,94545,438-30-19,1b36e5165e04bdc4
-122.1410987,37.6517539,2695,W WINTON AV,,HAYWARD,,,94545,438-30-19,025c740439b6255a
-122.1425387,37.650882,2843,W WINTON AV,,HAYWARD,,,94545,438-30-19,11aea3e2cbab4b06
-122.1426363,37.650858,2845,W WINTON AV,,HAYWARD,,,94545,438-30-19,956056f4b6ae1a79
-122.1412163,37.6517541,2701,W WINTON AV,,HAYWARD,,,94545,438-30-19,a7b080180f422673
-122.2467284,37.8310778,4435,PIEDMONT AV,,OAKLAND,,,94611,13-1128-32,f62b72b118ebf44c
-121.8973507,37.7092897,5800,IRON HORSE PW,,DUBLIN,,,94568,986-60-133,720788bd39aa9c0c
-121.8973506,37.7093832,5812,IRON HORSE PW,,DUBLIN,,,94568,986-60-132,9b13c450c477bea9
-121.8973505,37.7094804,5820,IRON HORSE PW,,DUBLIN,,,94568,986-60-131,fbc5f8f2e1653808
-121.8973505,37.7095719,5828,IRON HORSE PW,,DUBLIN,,,94568,986-60-130,36b7f582a7f9f5a3
-121.8976376,37.7095406,5616,MULHOLLAND AV,,DUBLIN,,,94568,986-60-129,2b8494c096bfd69d
-121.8977546,37.7095407,5632,MULHOLLAND AV,,DUBLIN,,,94568,986-60-128,5b9e66c3c10ba63c
-121.8978705,37.7095398,5640,MULHOLLAND AV,,DUBLIN,,,94568,986-60-127,897d19ac7016708b
-121.8979905,37.7095412,5652,MULHOLLAND AV,,DUBLIN,,,94568,986-60-126,844545c530574c45
-121.8976385,37.7093017,5615,CENTRAL PW,,DUBLIN,,,94568,986-60-125,da29dc338600d7a1
-121.8977555,37.7093018,5623,CENTRAL PW,,DUBLIN,,,94568,986-60-124,93d96c12074a6809
-121.8978714,37.7093009,5631,CENTRAL PW,,DUBLIN,,,94568,986-60-123,2f9e71ecf3f01084
-121.8979914,37.7093023,5639,CENTRAL PW,,DUBLIN,,,94568,986-60-122,4cfcc9f237db92f6
-121.8982844,37.7092786,5881,GREENBURG RD,,DUBLIN,,,94568,986-60-121,09e96e09875a51c2
-121.8982844,37.7093721,5887,GREENBURG RD,,DUBLIN,,,94568,986-60-120,4a365fbcac11f112
-121.8982843,37.7094693,5893,GREENBURG RD,,DUBLIN,,,94568,986-60-119,bec3e28acf644316
-121.8982842,37.7095609,5899,GREENBURG RD,,DUBLIN,,,94568,986-60-118,034809fc1dcac8f1
-121.8986875,37.7095599,5898,GREENBURG RD,,DUBLIN,,,94568,986-60-117,9131d6fb54611178
-121.8986876,37.7094684,5892,GREENBURG RD,,DUBLIN,,,94568,986-60-116,296a9b6e4a92f7fe
-121.8986878,37.7092776,5880,GREENBURG RD,,DUBLIN,,,94568,986-60-114,d26914c9973f1383
-121.8986877,37.7093711,5886,GREENBURG RD,,DUBLIN,,,94568,986-60-114,05f4ac8e59113c01
-121.8989914,37.7093009,5683,CENTRAL PW,,DUBLIN,,,94568,986-60-113,9c20984f404eb3f2
-121.8991018,37.7093001,5691,CENTRAL PW,,DUBLIN,,,94568,986-60-112,078c3c1bce230997
-121.8992219,37.7093015,5699,CENTRAL PW,,DUBLIN,,,94568,986-60-111,f4ddf42525dc5e39
-121.8990204,37.7095371,5700,MULHOLLAND AV,,DUBLIN,,,94568,986-60-110,27855f222aee8873
-121.8991363,37.7095362,5706,MULHOLLAND AV,,DUBLIN,,,94568,986-60-109,5bbad9c160153d2c
-121.8992563,37.7095376,5712,MULHOLLAND AV,,DUBLIN,,,94568,986-60-108,8ec4823315818a59
-121.8992225,37.7097502,5954,LOMBARD ST,,DUBLIN,,,94568,986-60-107,5a4ffbe12547922e
-121.8992225,37.7098437,5960,LOMBARD ST,,DUBLIN,,,94568,986-60-106,d103676bdbba9a9f
-121.8992224,37.7099409,5966,LOMBARD ST,,DUBLIN,,,94568,986-60-105,6c7a6e2a92b12fa7
-121.8992223,37.7100324,5972,LOMBARD ST,,DUBLIN,,,94568,986-60-104,e07fc3e5de57e563
-121.8992222,37.710122,5978,LOMBARD ST,,DUBLIN,,,94568,986-60-104,df00819b65fd4831
-121.8992222,37.7102155,5984,LOMBARD ST,,DUBLIN,,,94568,986-60-103,67d4cefb9bc587e5
-121.8992221,37.7103127,5990,LOMBARD ST,,DUBLIN,,,94568,986-60-101,1b46b7df76484842
-121.899222,37.7104042,5996,LOMBARD ST,,DUBLIN,,,94568,986-60-100,27e7b060fd1eb093
-121.8992197,37.7104715,5998,LOMBARD ST,,DUBLIN,,,94568,986-60-100,97ab85f3d8e5e438
-121.8991054,37.7106696,5703,BEALE AV,,DUBLIN,,,94568,986-60-99,100691b4c15d1cd9
-121.8992254,37.710671,5709,BEALE AV,,DUBLIN,,,94568,986-60-98,84a503dffc3c17d2
-121.8995237,37.710456,5999,STERLING ST,,DUBLIN,,,94568,986-60-96,489cd1a0d1419e99
-121.8995238,37.7103625,5991,STERLING ST,,DUBLIN,,,94568,986-60-95,89e50a6ea2d58124
-121.8995238,37.710271,5983,STERLING ST,,DUBLIN,,,94568,986-60-94,bd23883dc09a2f8c
-121.8995239,37.7101738,5975,STERLING ST,,DUBLIN,,,94568,986-60-93,8f4c33385435d896
-121.899524,37.7100802,5967,STERLING ST,,DUBLIN,,,94568,986-60-92,5e19691097eb9091
-121.899524,37.7099907,5959,STERLING ST,,DUBLIN,,,94568,986-60-91,39dd5e12e8de723c
-121.8995241,37.7098992,5951,STERLING ST,,DUBLIN,,,94568,986-60-90,b5e102868de366fe
-121.8995242,37.709802,5943,STERLING ST,,DUBLIN,,,94568,986-60-89,d13fd5763fcbafd4
-121.8995243,37.7095922,5927,STERLING ST,,DUBLIN,,,94568,986-60-87,0ba9fdaa07409fd1
-121.8995244,37.7095007,5919,STERLING ST,,DUBLIN,,,94568,986-60-86,66872dc83d360a81
-121.8995245,37.70931,5903,STERLING ST,,DUBLIN,,,94568,986-60-85,4385ea4926cd3258
-121.8995245,37.7094035,5911,STERLING ST,,DUBLIN,,,94568,986-60-85,7c5893e8c6755655
-121.8995243,37.7097084,5935,STERLING ST,,DUBLIN,,,94568,986-60-76,4059255f363e28e3
-121.8973289,37.7102505,5896,IRON HORSE PW,,DUBLIN,,,94568,986-60-75,2cefcedfb90324fc
-121.8974622,37.7102518,5925,ABBOTT ST,,DUBLIN,,,94568,986-60-74,5ab15ead6f00bc35
-121.8975852,37.7102508,5929,ABBOTT ST,,DUBLIN,,,94568,986-60-73,cf591cc81ff5a335
-121.8977197,37.7102521,5933,ABBOTT ST,,DUBLIN,,,94568,986-60-72,b84868d87559cefe
-121.8977294,37.7100002,5901,ABBOTT ST,,DUBLIN,,,94568,986-60-71,b38e0c88d67bbff5
-121.8975949,37.7099989,5907,ABBOTT ST,,DUBLIN,,,94568,986-60-70,615e40494b893430
-121.8974719,37.7099999,5915,ABBOTT ST,,DUBLIN,,,94568,986-60-69,2c90cb35c91dccb5
-121.8973386,37.7099986,5919,ABBOTT ST,,DUBLIN,,,94568,986-60-68,558fbbba09cc6b87
-121.8973306,37.7098289,5601,MULHOLLAND PL,,DUBLIN,,,94568,986-60-67,e39e76741dee0594
-121.8974639,37.7098302,5609,MULHOLLAND PL,,DUBLIN,,,94568,986-60-66,d6894627679d4e41
-121.8975869,37.7098292,5617,MULHOLLAND PL,,DUBLIN,,,94568,986-60-65,466fe5b755a16285
-121.8977214,37.7098305,5889,ABBOTT ST,,DUBLIN,,,94568,986-60-64,3532977392e2da10
-121.898058,37.7098241,5888,ABBOTT ST,,DUBLIN,,,94568,986-60-63,0951726d93a31b54
-121.8981846,37.7098252,5659,MULHOLLAND AV,,DUBLIN,,,94568,986-60-62,ee3a7af0212d8266
-121.8983151,37.7098276,5665,MULHOLLAND AV,,DUBLIN,,,94568,986-60-61,5b2beab997da3a97
-121.8984502,37.7098265,5671,MULHOLLAND AV,,DUBLIN,,,94568,986-60-60,371d511d0a6a15b0
-121.8985898,37.7098247,5677,MULHOLLAND AV,,DUBLIN,,,94568,986-60-59,c164884c5fb7aca0
-121.8987203,37.7098271,5685,MULHOLLAND AV,,DUBLIN,,,94568,986-60-58,a74d5da0d82ca0b7
-121.8988535,37.7098265,5955,LOMBARD ST,,DUBLIN,,,94568,986-60-57,e7e5ab1a588804fc
-121.8988539,37.7100053,5961,LOMBARD ST,,DUBLIN,,,94568,986-60-56,cf28cd962b3e9985
-121.8987206,37.7100059,5965,LOMBARD ST,,DUBLIN,,,94568,986-60-55,d384db3db7d45294
-121.8985901,37.7100035,5969,LOMBARD ST,,DUBLIN,,,94568,986-60-54,4ed749b43ae19dbf
-121.8984505,37.7100053,5973,LOMBARD ST,,DUBLIN,,,94568,986-60-53,863d1f354bf290b3
-121.8983155,37.7100064,5916,ABBOTT ST,,DUBLIN,,,94568,986-60-52,ecaed34ac66a5d04
-121.898185,37.7100041,5908,ABBOTT ST,,DUBLIN,,,94568,986-60-51,f1be5d07795428d9
-121.8980583,37.7100029,5900,ABBOTT ST,,DUBLIN,,,94568,986-60-50,9866466f562c44e4
-121.8980569,37.7102438,5932,ABBOTT ST,,DUBLIN,,,94568,986-60-49,951cb31f3f108887
-121.898049,37.7103071,5940,ABBOTT ST,,DUBLIN,,,94568,986-60-49,744159f99f082403
-121.8981835,37.7102449,5928,ABBOTT ST,,DUBLIN,,,94568,986-60-48,d4d34c562e62fe2a
-121.898314,37.7102473,5920,ABBOTT ST,,DUBLIN,,,94568,986-60-47,5d18f3cf0a87ce40
-121.898449,37.7102461,5977,LOMBARD ST,,DUBLIN,,,94568,986-60-46,5555c3a7e6e93bd2
-121.8985887,37.7102444,5981,LOMBARD ST,,DUBLIN,,,94568,986-60-45,83f818c3d7545752
-121.8987192,37.7102467,5985,LOMBARD ST,,DUBLIN,,,94568,986-60-44,0146f9790e22fb84
-121.8988524,37.7102461,5989,LOMBARD ST,,DUBLIN,,,94568,986-60-43,f8250348806c2e16
-121.8988528,37.7104249,5997,LOMBARD ST,,DUBLIN,,,94568,986-60-42,c2d2281260d29346
-121.8987195,37.7104256,5692,BEALE AV,,DUBLIN,,,94568,986-60-41,307573aa149fed40
-121.898589,37.7104232,5686,BEALE AV,,DUBLIN,,,94568,986-60-40,d51089918ddf3c8c
-121.8984494,37.7104249,5678,BEALE AV,,DUBLIN,,,94568,986-60-39,c0b73c07958a823e
-121.8983144,37.7104261,5672,BEALE AV,,DUBLIN,,,94568,986-60-38,9a4ee739c4ca58b8
-121.8981839,37.7104237,5668,BEALE AV,,DUBLIN,,,94568,986-60-37,66c88ef66ad5d432
-121.8980572,37.7104226,5938,ABBOTT ST,,DUBLIN,,,94568,986-60-36,6d5355b12bbd03a1
-121.8989639,37.7106717,5701,BEALE AV,,DUBLIN,,,94568,986-60-6,32ad67bf40881936
-122.300288,37.8111638,1775,11TH ST,,OAKLAND,,,94607,6-31-53,981ea6f6eedd9c31
-122.26801,37.8126877,466,23RD ST,,OAKLAND,,,94612,8-665-9,a46937a51ab9e41b
-122.2678008,37.8126687,456,23RD ST,,OAKLAND,,,94612,8-665-8,d5746c93705d928d
-122.2677807,37.8127319,2323,VALLEY ST,,OAKLAND,,,94612,8-665-8,c3ab568f63587fef
-122.2681127,37.8127122,474,23RD ST,,OAKLAND,,,94612,8-665-10,24331edc2023cd40
-122.2028116,37.8007012,2941,CARMEL ST,,OAKLAND,,,94602,29-980-59,49188b91e0cc9320
-121.9829048,37.5528951,3149,CAPITOL AV,,FREMONT,,,94538,501-1130-53,415d7ee6c6b0c814
-121.9825665,37.553553,39039,PASEO PADRE PW,STE 201,FREMONT,,,94538,501-1130-54,fd9e98fe982f08c5
-121.9824804,37.5536404,39039,PASEO PADRE PW,STE 202,FREMONT,,,94538,501-1130-54,50d4b431fe3f0ea0
-121.9824231,37.5537041,39039,PASEO PADRE PW,STE 203,FREMONT,,,94538,501-1130-54,cc3b4bcfb3ad4988
-121.9823831,37.5537582,39039,PASEO PADRE PW,STE 204,FREMONT,,,94538,501-1130-54,c47723d4767ba7d7
-121.9824481,37.5537831,39039,PASEO PADRE PW,STE 205,FREMONT,,,94538,501-1130-54,d7fc81f8407e975b
-121.9825101,37.5538103,39039,PASEO PADRE PW,STE 206,FREMONT,,,94538,501-1130-54,fb5481d87cd910d5
-121.9825986,37.5536949,39039,PASEO PADRE PW,STE 207,FREMONT,,,94538,501-1130-54,b5ebc524407543ba
-121.9826727,37.553589,39039,PASEO PADRE PW,STE 208,FREMONT,,,94538,501-1130-54,710556cc18ce9444
-121.9827041,37.553549,39039,PASEO PADRE PW,STE 209,FREMONT,,,94538,501-1130-54,45f71b3d4a43e461
-121.9826035,37.5534966,39039,PASEO PADRE PW,,FREMONT,,,94538,501-1130-54,c144e6a01fc3979b
-121.9824012,37.5535598,3105,CAPITOL AV,,FREMONT,,,94538,501-1130-54,e53a9fade17eebcf
-122.2719235,37.8024749,1100,BROADWAY,,OAKLAND,,,94607,2-51-17,d0a137ae4cc123f8
-121.858706,37.7033031,3100,DUBLIN BL,,DUBLIN,,,94568,985-27-20,ad32506f9ad71f53
-121.9851911,37.5487688,3768,CAPITOL AV,UNIT 318B,FREMONT,,,94538,501-1839-170,85a64b05c9e6c52a
-121.9851322,37.5488451,3768,CAPITOL AV,UNIT 315B,FREMONT,,,94538,501-1839-170,48850d51a02f55f0
-121.9850776,37.5489826,3768,CAPITOL AV,UNIT 301B,FREMONT,,,94538,501-1839-170,b4643868594949c0
-121.9851529,37.5488183,3768,CAPITOL AV,UNIT 316B,FREMONT,,,94538,501-1839-170,937fc593e9c7b43e
-121.9851711,37.5487947,3768,CAPITOL AV,UNIT 317B,FREMONT,,,94538,501-1839-170,8584aab21e206991
-121.9852011,37.5488225,3768,CAPITOL AV,UNIT 307B,FREMONT,,,94538,501-1839-170,28c8adf9063b0909
-121.985055,37.5489451,3768,CAPITOL AV,UNIT 311B,FREMONT,,,94538,501-1839-170,84fd61c9268bb1c4
-121.9850738,37.5489207,3768,CAPITOL AV,UNIT 312B,FREMONT,,,94538,501-1839-170,457225a7a186c007
-121.9850983,37.5489558,3768,CAPITOL AV,UNIT 302B,FREMONT,,,94538,501-1839-170,409b840c57da0d13
-121.9851823,37.5488469,3768,CAPITOL AV,UNIT 306B,FREMONT,,,94538,501-1839-170,ef60179986700f47
-121.9851127,37.5488703,3768,CAPITOL AV,UNIT 314B,FREMONT,,,94538,501-1839-170,f17b32a45a5ac3bc
-121.9850927,37.5488963,3768,CAPITOL AV,UNIT 313B,FREMONT,,,94538,501-1839-170,07b9eac61df0d712
-121.9851183,37.5489298,3768,CAPITOL AV,UNIT 303B,FREMONT,,,94538,501-1839-170,70afc6f24c4c43f1
-121.9852193,37.548799,3768,CAPITOL AV,UNIT 308B,FREMONT,,,94538,501-1839-170,32ccff8a1a5cb946
-121.9850375,37.5489678,3768,CAPITOL AV,UNIT 310B,FREMONT,,,94538,501-1839-170,c4c1815948b7856e
-121.9850581,37.5490078,3768,CAPITOL AV,UNIT 300B,FREMONT,,,94538,501-1839-170,414170f8faccc0b6
-121.985161,37.5488745,3768,CAPITOL AV,UNIT 305B,FREMONT,,,94538,501-1839-170,3f97a7086f17d947
-121.985139,37.548903,3768,CAPITOL AV,UNIT 304B,FREMONT,,,94538,501-1839-170,f71fd7e495529943
-121.985018,37.548993,3768,CAPITOL AV,UNIT 309B,FREMONT,,,94538,501-1839-170,a7432e2a73a78026
-121.9851935,37.5488982,3768,CAPITOL AV,UNIT 118B,FREMONT,,,94538,501-1839-170,51fc000b6cd7e6cc
-121.9851458,37.5489599,3768,CAPITOL AV,UNIT 116B,FREMONT,,,94538,501-1839-170,1e73e2653454dc50
-121.9851233,37.5489892,3768,CAPITOL AV,UNIT 115B,FREMONT,,,94538,501-1839-170,3670b3af157937ff
-121.9852443,37.5488324,3768,CAPITOL AV,UNIT 120B,FREMONT,,,94538,501-1839-170,0fc30f29ee86983c
-121.985169,37.5489299,3768,CAPITOL AV,UNIT 117B,FREMONT,,,94538,501-1839-170,5e6fa5a0a10e96a4
-121.9850976,37.5490225,3768,CAPITOL AV,UNIT 100B,FREMONT,,,94538,501-1839-170,98675e94ead0ab35
-121.9852186,37.5488657,3768,CAPITOL AV,UNIT 119B,FREMONT,,,94538,501-1839-170,00446aedb333dee2
-121.9849633,37.5489427,3768,CAPITOL AV,UNIT 500B,FREMONT,,,94538,501-1839-170,2b2068ad350d1ff9
-121.984997,37.5489591,3768,CAPITOL AV,UNIT 400B,FREMONT,,,94538,501-1839-170,fedecd70d81bea96
-121.9850348,37.5488501,3768,CAPITOL AV,UNIT 515B,FREMONT,,,94538,501-1839-170,b722b2c98dd0a13f
-121.9850685,37.5488665,3768,CAPITOL AV,UNIT 415B,FREMONT,,,94538,501-1839-170,851a7340781e3666
-121.9851131,37.5487485,3768,CAPITOL AV,UNIT 518B,FREMONT,,,94538,501-1839-170,1a073a969150ee79
-121.9850453,37.5488966,3768,CAPITOL AV,UNIT 414B,FREMONT,,,94538,501-1839-170,91aa86e7ff99f348
-121.9851469,37.5487649,3768,CAPITOL AV,UNIT 418B,FREMONT,,,94538,501-1839-170,0271d56e14008e50
-121.9850961,37.5488308,3768,CAPITOL AV,UNIT 416B,FREMONT,,,94538,501-1839-170,bdbec96700ec41fe
-121.9851212,37.5487983,3768,CAPITOL AV,UNIT 417B,FREMONT,,,94538,501-1839-170,ef73720156e697a2
-121.9850623,37.5488144,3768,CAPITOL AV,UNIT 516B,FREMONT,,,94538,501-1839-170,e97b3af0bf76a298
-121.9850116,37.5488802,3768,CAPITOL AV,UNIT 514B,FREMONT,,,94538,501-1839-170,4bc4f6a3e4a9f1a1
-121.9850227,37.5489258,3768,CAPITOL AV,UNIT 401B,FREMONT,,,94538,501-1839-170,7f0f78f8a93991a0
-121.9850874,37.5487819,3768,CAPITOL AV,UNIT 517B,FREMONT,,,94538,501-1839-170,0bb8f235c78fe95c
-121.984989,37.5489094,3768,CAPITOL AV,UNIT 501B,FREMONT,,,94538,501-1839-170,33f57b9b875db70c
-121.985245,37.5488953,3768,CAPITOL AV,STE J,FREMONT,,,94538,501-1839-170,594cd362f44d729b
-121.9851987,37.5489552,3768,CAPITOL AV,STE F,FREMONT,,,94538,501-1839-170,2084ed38f9515b96
-121.9851768,37.5489836,3768,CAPITOL AV,STE D,FREMONT,,,94538,501-1839-170,e455245cb278bcd6
-121.9852219,37.5489251,3768,CAPITOL AV,STE H,FREMONT,,,94538,501-1839-170,e3d21756cd00d4ad
-121.9851544,37.5490127,3768,CAPITOL AV,STE A,FREMONT,,,94538,501-1839-170,1135e660b2f6cff6
-121.9850065,37.5490366,3768,CAPITOL AV,BLDG,FREMONT,,,94538,501-1839-170,b58b764947c25f90
-121.9848347,37.5489791,3827,HEART CM,,FREMONT,,,94538,501-1839-170,904ddb8fc18ecf0b
-121.9848682,37.5489267,3829,HEART CM,,FREMONT,,,94538,501-1839-170,6b50ab1bf1b95b6b
-121.9849225,37.5488635,3831,HEART CM,,FREMONT,,,94538,501-1839-170,78a2af5f75712c53
-121.9849618,37.5488172,3833,HEART CM,,FREMONT,,,94538,501-1839-170,04757cd061a85888
-121.9850009,37.5487587,3835,HEART CM,,FREMONT,,,94538,501-1839-170,5d48c69c0d573864
-121.9850457,37.5486987,3837,HEART CM,,FREMONT,,,94538,501-1839-170,93080a4885572b01
-121.9851277,37.5485847,3839,HEART CM,,FREMONT,,,94538,501-1839-170,5b0616d404d45f5a
-121.984721,37.5489162,39141,DECLARATION ST,BLDG,FREMONT,,,94538,501-1839-128,4c906f22b02912fd
-121.9846773,37.5488936,39143,DECLARATION ST,,FREMONT,,,94538,501-1839-128,5b8322fd9b249db7
-121.9846221,37.5488654,39145,DECLARATION ST,,FREMONT,,,94538,501-1839-128,19aefff05e3268be
-121.9845695,37.5488393,39147,DECLARATION ST,,FREMONT,,,94538,501-1839-128,83acdbc84b7882e3
-121.984515,37.5488115,39149,DECLARATION ST,,FREMONT,,,94538,501-1839-128,b33c7081586f5b11
-121.984463,37.5487874,39151,DECLARATION ST,,FREMONT,,,94538,501-1839-128,9cb41b60f7dcbf6b
-121.9844135,37.5487627,39153,DECLARATION ST,,FREMONT,,,94538,501-1839-128,7e9fa07455997eda
-121.9843601,37.5487363,39155,DECLARATION ST,,FREMONT,,,94538,501-1839-128,f39c95e19d179540
-121.9843092,37.5487093,39157,DECLARATION ST,,FREMONT,,,94538,501-1839-128,15f240c6d0c66725
-121.9842563,37.5486864,39159,DECLARATION ST,,FREMONT,,,94538,501-1839-128,19ee62d718b9c119
-121.9842058,37.5486588,39161,DECLARATION ST,,FREMONT,,,94538,501-1839-128,737546287dffab7f
-121.9841527,37.5486334,39163,DECLARATION ST,,FREMONT,,,94538,501-1839-128,868d12c094016504
-121.9840966,37.5486022,39165,DECLARATION ST,,FREMONT,,,94538,501-1839-128,4100a4cbef9c8e5b
-121.9847906,37.5483659,39124,MEMORIAL ST,,FREMONT,,,94538,501-1839-128,990253e782d95029
-121.9848971,37.5484178,39120,MEMORIAL ST,,FREMONT,,,94538,501-1839-128,51157f938f1250b7
-121.9845334,37.5482374,39134,MEMORIAL ST,,FREMONT,,,94538,501-1839-128,76484e2757ed150d
-121.9849497,37.5484439,39118,MEMORIAL ST,,FREMONT,,,94538,501-1839-128,d6392d71c1cc5b1a
-121.9850486,37.5484947,39114,MEMORIAL ST,BLDG,FREMONT,,,94538,501-1839-128,ff8c52c7432847ca
-121.9844242,37.5481807,39138,MEMORIAL ST,,FREMONT,,,94538,501-1839-128,1e04b3b0c67430f0
-121.9846877,37.5483148,39128,MEMORIAL ST,,FREMONT,,,94538,501-1839-128,a3725b6112e09903
-121.9844803,37.5482119,39136,MEMORIAL ST,,FREMONT,,,94538,501-1839-128,be0a6d931c9db715
-121.9845839,37.5482649,39132,MEMORIAL ST,,FREMONT,,,94538,501-1839-128,ee6314bc58176eaa
-121.9848426,37.54839,39122,MEMORIAL ST,,FREMONT,,,94538,501-1839-128,444baa1bf89399dc
-121.9846368,37.5482878,39130,MEMORIAL ST,,FREMONT,,,94538,501-1839-128,22bfdab81353fa91
-121.9850049,37.5484721,39116,MEMORIAL ST,,FREMONT,,,94538,501-1839-128,0b7c527302521df0
-121.9847411,37.5483412,39126,MEMORIAL ST,,FREMONT,,,94538,501-1839-128,7b60d4098b59c406
-121.9847895,37.5487351,3832,HEART CM,,FREMONT,,,94538,501-1839-128,3051f6438fc6d88d
-121.984836,37.5486806,3834,HEART CM,,FREMONT,,,94538,501-1839-128,462a68598641d02e
-121.9848763,37.5486274,3836,HEART CM,,FREMONT,,,94538,501-1839-128,87190ff6e1a8a43f
-121.9846019,37.5486393,3822,TRIUMPH TE,,FREMONT,,,94538,501-1839-128,c6b4e7d0241a679d
-121.9846366,37.5485991,3824,TRIUMPH TE,,FREMONT,,,94538,501-1839-128,53b9c4affc66d60c
-121.984667,37.5485644,3826,TRIUMPH TE,,FREMONT,,,94538,501-1839-128,ea4bcc6b2725a63e
-121.9846936,37.5485238,3828,TRIUMPH TE,,FREMONT,,,94538,501-1839-128,55de6bab36de731f
-121.9844149,37.5485464,3813,SPIRIT TE,,FREMONT,,,94538,501-1839-128,e175105d299ddccd
-121.9844614,37.5484919,3815,SPIRIT TE,,FREMONT,,,94538,501-1839-128,32514c6ff18cd6d6
-121.9845018,37.5484386,3817,SPIRIT TE,,FREMONT,,,94538,501-1839-128,d3ccda83e943b277
-121.9842838,37.5484222,3805,NATION AV,,FREMONT,,,94538,501-1839-128,56fb9d54a5b0c504
-121.9843142,37.5483875,3607,NATION AV,,FREMONT,,,94538,501-1839-128,92de2b675ff258ae
-121.9843409,37.5483469,3609,NATION AV,,FREMONT,,,94538,501-1839-128,fe6ed116d416780a
-121.9842492,37.5484624,3803,NATION AV,,FREMONT,,,94538,501-1839-128,0210ebe0c7f74947
-121.9847683,37.5487619,3830,HEART CM,BLDG,FREMONT,,,94538,501-1839-128,057d194504d9869c
-121.9845804,37.5486665,3820,TRIUMPH TE,BLDG,FREMONT,,,94538,501-1839-128,106832529b1bf73f
-121.984393,37.5485742,3811,SPIRIT TE,BLDG,FREMONT,,,94538,501-1839-128,fc7c157855ea78f5
-121.9842275,37.5484875,3801,NATION AV,BLDG,FREMONT,,,94538,501-1839-128,b1f61746af98621d
-121.9849097,37.5485833,3854,HEART CM,,FREMONT,,,94538,501-1839-128,09dec5df14a1e038
-121.9845402,37.5496563,3658,CAPITOL AV,BLDG,FREMONT,,,94538,501-1839-88,d28c0701c49920d5
-121.98469,37.5496207,3658,CAPITOL AV,STE A,FREMONT,,,94538,501-1839-88,e106c57b75e7369a
-121.9847124,37.5495917,3658,CAPITOL AV,STE D,FREMONT,,,94538,501-1839-88,390686c1156804ea
-121.9847344,37.5495633,3658,CAPITOL AV,STE F,FREMONT,,,94538,501-1839-88,fefa2623a6ffcfeb
-121.9847576,37.5495332,3658,CAPITOL AV,STE H,FREMONT,,,94538,501-1839-88,f378e78feedb3b89
-121.9847806,37.5495033,3658,CAPITOL AV,STE K,FREMONT,,,94538,501-1839-88,dae0bc85c7769119
-121.9848044,37.5494725,3658,CAPITOL AV,STE M,FREMONT,,,94538,501-1839-88,f0504c214b0f7ea7
-121.9845334,37.5495662,3658,CAPITOL AV,UNIT 400A,FREMONT,,,94538,501-1839-88,1e378cc95e799f94
-121.9846576,37.5494053,3658,CAPITOL AV,UNIT 418A,FREMONT,,,94538,501-1839-88,dcb5e6aceebdde7e
-121.9846833,37.549372,3658,CAPITOL AV,UNIT 419A,FREMONT,,,94538,501-1839-88,5e962771c6413738
-121.9845591,37.5495329,3658,CAPITOL AV,UNIT 401A,FREMONT,,,94538,501-1839-88,8320b6b685e5073a
-121.9845817,37.5495036,3658,CAPITOL AV,UNIT 402A,FREMONT,,,94538,501-1839-88,f3a7ccd158c7fff6
-121.9846049,37.5494735,3658,CAPITOL AV,UNIT 403A,FREMONT,,,94538,501-1839-88,712495e59867937f
-121.9846325,37.5494378,3658,CAPITOL AV,UNIT 404A,FREMONT,,,94538,501-1839-88,a7923ebc7efe77a4
-121.9844997,37.5495498,3658,CAPITOL AV,UNIT 500A,FREMONT,,,94538,501-1839-88,63c9b6fb95491af0
-121.9845254,37.5495165,3658,CAPITOL AV,UNIT 501A,FREMONT,,,94538,501-1839-88,3f1176881493d621
-121.9846496,37.5493556,3658,CAPITOL AV,UNIT 519A,FREMONT,,,94538,501-1839-88,d2e6e5de68ced4b3
-121.9846238,37.5493889,3658,CAPITOL AV,UNIT 518A,FREMONT,,,94538,501-1839-88,d642ec86bdcfcfa5
-121.984548,37.5494872,3658,CAPITOL AV,UNIT 502A,FREMONT,,,94538,501-1839-88,4f2a1ae43432a8b0
-121.9845712,37.5494571,3658,CAPITOL AV,UNIT 503A,FREMONT,,,94538,501-1839-88,7181026a6f0a0a03
-121.9845988,37.5494214,3658,CAPITOL AV,UNIT 504A,FREMONT,,,94538,501-1839-88,8b78807c4209415f
-121.9845843,37.5496319,3658,CAPITOL AV,UNIT 300A,FREMONT,,,94538,501-1839-88,5faa7a2e46e9ebd3
-121.9846037,37.5496067,3658,CAPITOL AV,UNIT 301A,FREMONT,,,94538,501-1839-88,a875935ab1742fda
-121.9846244,37.5495799,3658,CAPITOL AV,UNIT 302A,FREMONT,,,94538,501-1839-88,e7f85d7d887fb877
-121.9846445,37.5495539,3658,CAPITOL AV,UNIT 303A,FREMONT,,,94538,501-1839-88,589ea260178a5413
-121.9846652,37.5495271,3658,CAPITOL AV,UNIT 304A,FREMONT,,,94538,501-1839-88,3aa54757b64b6b59
-121.9846871,37.5494986,3658,CAPITOL AV,UNIT 305A,FREMONT,,,94538,501-1839-88,28d7a2b109b19a7d
-121.9847084,37.549471,3658,CAPITOL AV,UNIT 306A,FREMONT,,,94538,501-1839-88,9d39cc6f9bc9a85a
-121.9847272,37.5494466,3658,CAPITOL AV,UNIT 307A,FREMONT,,,94538,501-1839-88,2a61f0efc0389f6d
-121.9847454,37.5494231,3658,CAPITOL AV,UNIT 308A,FREMONT,,,94538,501-1839-88,357d13eae2e7d8dd
-121.9847642,37.5493987,3658,CAPITOL AV,UNIT 309A,FREMONT,,,94538,501-1839-88,ad06124410dff081
-121.9845521,37.5496115,3658,CAPITOL AV,UNIT 310A,FREMONT,,,94538,501-1839-88,b3e5f77a41ba3cc0
-121.9845697,37.5495888,3658,CAPITOL AV,UNIT 311A,FREMONT,,,94538,501-1839-88,17d45df7282bd57e
-121.9845885,37.5495644,3658,CAPITOL AV,UNIT 312A,FREMONT,,,94538,501-1839-88,77ca47795aab37a6
-121.9846073,37.54954,3658,CAPITOL AV,UNIT 313A,FREMONT,,,94538,501-1839-88,c41b401c55739888
-121.9846274,37.549514,3658,CAPITOL AV,UNIT 314A,FREMONT,,,94538,501-1839-88,3b87579172e7bf17
-121.9846468,37.5494888,3658,CAPITOL AV,UNIT 315A,FREMONT,,,94538,501-1839-88,8327e633645fd9aa
-121.9846675,37.549462,3658,CAPITOL AV,UNIT 316A,FREMONT,,,94538,501-1839-88,0dc56b31334a316a
-121.9846857,37.5494384,3658,CAPITOL AV,UNIT 317A,FREMONT,,,94538,501-1839-88,0d695bc9be4e1f31
-121.9847058,37.5494124,3658,CAPITOL AV,UNIT 318A,FREMONT,,,94538,501-1839-88,1e7972432bd04f27
-121.9847246,37.5493881,3658,CAPITOL AV,UNIT 319A,FREMONT,,,94538,501-1839-88,f938561da7b46b81
-121.9843453,37.5496216,3629,JUBILEE CM,,FREMONT,,,94538,501-1839-88,69c2309046dc17e5
-121.9844114,37.5495069,3631,JUBILEE CM,,FREMONT,,,94538,501-1839-88,388873efaec5f90f
-121.9844524,37.5494588,3633,JUBILEE CM,,FREMONT,,,94538,501-1839-88,4438260966b29776
-121.9844893,37.5494135,3635,JUBILEE CM,,FREMONT,,,94538,501-1839-88,facc5a9213cd3fd4
-121.9845286,37.5493623,3637,JUBILEE CM,,FREMONT,,,94538,501-1839-88,88b7d9ca155f0be6
-121.9845892,37.5492614,3639,JUBILEE CM,,FREMONT,,,94538,501-1839-88,eb3c66078fcab49f
-121.9846305,37.5492136,3641,JUBILEE CM,,FREMONT,,,94538,501-1839-88,c4620450137f3474
-121.9843718,37.5490874,39146,DECLARATION ST,,FREMONT,,,94538,501-1839-45,b5db32b37014cc95
-121.9840081,37.5489069,39160,DECLARATION ST,,FREMONT,,,94538,501-1839-45,1db2ccb4a55f160c
-121.9845233,37.5491643,39140,DECLARATION ST,BLDG,FREMONT,,,94538,501-1839-45,5c3b6e54e9f89a54
-121.9843173,37.5490596,39148,DECLARATION ST,,FREMONT,,,94538,501-1839-45,2f39cc340c8e060e
-121.983955,37.5488814,39162,DECLARATION ST,,FREMONT,,,94538,501-1839-45,89214d4921d92f72
-121.9841624,37.5489843,39154,DECLARATION ST,,FREMONT,,,94538,501-1839-45,7fd08a5504a9a41c
-121.9838989,37.5488503,39164,DECLARATION ST,,FREMONT,,,94538,501-1839-45,f678212c94c5a79e
-121.9842653,37.5490354,39150,DECLARATION ST,,FREMONT,,,94538,501-1839-45,1158f637a4a0642e
-121.9844796,37.5491417,39142,DECLARATION ST,,FREMONT,,,94538,501-1839-45,bd1cf8024edf0441
-121.9841115,37.5489574,39156,DECLARATION ST,,FREMONT,,,94538,501-1839-45,22460ba47b38befe
-121.9842158,37.5490108,39152,DECLARATION ST,,FREMONT,,,94538,501-1839-45,848bf06d3551701d
-121.9844244,37.5491135,39144,DECLARATION ST,,FREMONT,,,94538,501-1839-45,7ccc8eb9c75cdd23
-121.9840586,37.5489345,39158,DECLARATION ST,,FREMONT,,,94538,501-1839-45,e15cec3182a4a8cc
-121.9837312,37.5493596,39189,STATE ST,,FREMONT,,,94538,501-1839-45,d1e84d941a68ae2e
-121.9840444,37.5495125,39177,STATE ST,,FREMONT,,,94538,501-1839-45,1289dc0cecfb497b
-121.983835,37.5494094,39185,STATE ST,,FREMONT,,,94538,501-1839-45,3bb1d157330658f5
-121.9838884,37.5494359,39183,STATE ST,,FREMONT,,,94538,501-1839-45,a68e75ec17d91dca
-121.9835715,37.5492754,39195,STATE ST,,FREMONT,,,94538,501-1839-45,9079c0d9aa86dc1f
-121.9837841,37.5493825,39187,STATE ST,,FREMONT,,,94538,501-1839-45,bfbee3e75daab1c2
-121.984097,37.5495386,39175,STATE ST,,FREMONT,,,94538,501-1839-45,95253b021bcf9571
-121.9836807,37.549332,39191,STATE ST,,FREMONT,,,94538,501-1839-45,9f3e5e5260d0122d
-121.98399,37.5494846,39179,STATE ST,,FREMONT,,,94538,501-1839-45,7d3de50a73d9f0e6
-121.9836277,37.5493065,39193,STATE ST,,FREMONT,,,94538,501-1839-45,9137ea488702b62c
-121.983938,37.5494605,39181,STATE ST,,FREMONT,,,94538,501-1839-45,e62a1dfa7af00279
-121.9841523,37.5495667,39173,STATE ST,,FREMONT,,,94538,501-1839-45,33c4fb195eaa1fa0
-121.984196,37.5495894,39171,STATE ST,BLDG,FREMONT,,,94538,501-1839-45,1beae2c75782cca9
-121.9842761,37.5494074,3632,JUBILEE CM,,FREMONT,,,94538,501-1839-45,efd0f06253c1043f
-121.9843226,37.5493529,3634,JUBILEE CM,,FREMONT,,,94538,501-1839-45,8da8cebaa941e7d2
-121.984363,37.5492996,3636,JUBILEE CM,,FREMONT,,,94538,501-1839-45,4838e4d66bb8a00a
-121.9840886,37.5493115,3622,CELEBRATION TE,,FREMONT,,,94538,501-1839-45,c920ca1b058cead6
-121.9841232,37.5492713,3624,CELEBRATION TE,,FREMONT,,,94538,501-1839-45,e80fe90d239aced7
-121.9841537,37.5492367,3626,CELEBRATION TE,,FREMONT,,,94538,501-1839-45,7acf2be31a53f636
-121.9841803,37.549196,3628,CELEBRATION TE,,FREMONT,,,94538,501-1839-45,e6bed76d787a656e
-121.9839016,37.5492186,3613,CARNIVAL TE,,FREMONT,,,94538,501-1839-45,3bb9f57633f169fd
-121.9839481,37.5491641,3615,CARNIVAL TE,,FREMONT,,,94538,501-1839-45,ef87ef79131f5589
-121.9839884,37.5491109,3617,CARNIVAL TE,,FREMONT,,,94538,501-1839-45,7fdcfe242b906e41
-121.9837704,37.5490944,3605,NATION AV,,FREMONT,,,94538,501-1839-45,a61672fc973c6c3c
-121.9838009,37.5490598,3607,NATION AV,,FREMONT,,,94538,501-1839-45,42fab765d4874390
-121.9838275,37.5490191,3609,NATION AV,,FREMONT,,,94538,501-1839-45,826f8adfd676ae03
-121.9837358,37.5491346,3603,NATION AV,,FREMONT,,,94538,501-1839-45,0300b96f2a222e98
-121.9842545,37.5494304,3620,JUBILEE CM,BLDG,FREMONT,,,94538,501-1839-45,c3e0824fea64676a
-121.984067,37.5493345,3620,CELEBRATION TE,BLDG,FREMONT,,,94538,501-1839-45,972598edf307607b
-121.9838799,37.5492417,3611,CARNIVAL TE,BLDG,FREMONT,,,94538,501-1839-45,638c42e62a6d97c3
-121.9837142,37.5491576,3601,NATION AV,BLDG,FREMONT,,,94538,501-1839-45,ed74b8e56182bdad
